Norma Juridica,Tipo Organiz.,Nombre,Personalidad Juridica,Fecha Pers. Juridica,Insc. Registro Civil,LugarReunion,Ciudad,Full Address,Latitude,Longitude,Vigencia Directiva,Modif. Estatutos,Fecha Disolucion
LEY 19418 TERRITORIALES,JUNTA DE VECINOS,JUNTA DE VECINOS CAMPOS DEPORTIVOS,1,29/01/1990,116843,COMBARBALA N° 0961,Temuco,COMBARBALA N° 0961 Temuco ,-38.7275615,-72.6158988,VIGENTE,,
LEY 19418 TERRITORIALES,JUNTA DE VECINOS,JUNTA DE VECINOS Nº 29 SANTA ROSA,3,29/01/1990,116845,BELGRADO N°530 SANTA ROSA,Temuco,BELGRADO N°530 SANTA ROSA Temuco ,-38.7383905,-72.5904598,VIGENTE,,
LEY 19418 TERRITORIALES,JUNTA DE VECINOS,JUNTA DE VECINOS N° 28 POBLACIÓN PAREDES,4,30/01/1990,116846,COLIMA N°0149,Temuco,COLIMA N°0149 Temuco ,-38.7370758,-72.574907,VENCIDA,,
LEY 19418 TERRITORIALES,JUNTA DE VECINOS,JUNTA DE VECINOS VILLA POMONA,5,30/01/1990,116847,QUITRATUE N°565 VILLA POMONA,Temuco,QUITRATUE N°565 VILLA POMONA Temuco ,-38.7383905,-72.5904598,VIGENTE,,
LEY 19418 TERRITORIALES,JUNTA DE VECINOS,JUNTA DE VECINOS PICHI-CAUTÍN,6,30/01/1990,116848,JOSE ROSARIO MUÑOZ N°475,Temuco,JOSE ROSARIO MUÑOZ N°475 Temuco ,-38.7452001,-72.596729,VIGENTE,04/10/1996,
LEY 19418 TERRITORIALES,JUNTA DE VECINOS,JUNTA DE VECINOS DREVES,7,30/01/1990,116849,SAN GUILLERMO N°355,Temuco,SAN GUILLERMO N°355 Temuco ,-38.7414813,-72.60992,VIGENTE,,
LEY 19418 TERRITORIALES,JUNTA DE VECINOS,JUNTA DE VECINOS N° 12 IGUALDAD Y TRABAJO,8,31/01/1990,116850,CASTILLA N°855,Temuco,CASTILLA N°855 Temuco ,-38.7351052,-72.6251766,VIGENTE,,
LEY 19418 TERRITORIALES,JUNTA DE VECINOS,JUNTA DE VECINOS LAS VERTIENTES,10,31/01/1990,116852,PASAJE OVALLE N° 01206,Temuco,PASAJE OVALLE N° 01206 Temuco ,-38.7267166,-72.6185207,VENCIDA,01/07/2006,
LEY 19418 TERRITORIALES,JUNTA DE VECINOS,JUNTA DE VECINOS N° 24 ÑIELOL,11,31/01/1990,116853,ZIEM N°2303,Temuco,ZIEM N°2303 Temuco ,-38.7238282,-72.5659327,VENCIDA,13/07/1996,
LEY 19418 TERRITORIALES,JUNTA DE VECINOS,JUNTA DE VECINOS SAN ANTONIO,16,01/02/1990,0,,Temuco, Temuco ,-38.7383905,-72.5904598,VENCIDA,,
LEY 19418 TERRITORIALES,JUNTA DE VECINOS,JUNTA DE VECINOS N°38 VILLA TURINGIA,17,02/02/1990,116859,QUELLÓN N°01435 VILLA TURINGIA,Temuco,QUELLÓN N°01435 VILLA TURINGIA Temuco ,-38.7261902,-72.5616312,VIGENTE,03/04/2004,
LEY 19418 TERRITORIALES,JUNTA DE VECINOS,JUNTA DE VECINOS N° 45 LABRANZA CENTRO,19,02/02/1990,116861,CALLE I NORTE N°360,Temuco,CALLE I NORTE N°360 Temuco ,-38.7143399,-72.6187903,VIGENTE,07/06/2004,
LEY 19418 TERRITORIALES,JUNTA DE VECINOS,JUNTA DE VECINOS N°13 MILLARAY,22,05/02/1990,116864,OHIGGINS N°01560,Temuco,OHIGGINS N°01560 Temuco ,-38.7373765,-72.6241926,VIGENTE,,
LEY 19418 TERRITORIALES,JUNTA DE VECINOS,JUNTA DE VECINOS JOSÉ MIGUEL CARRERA,23,05/02/1990,116865,TIBURCIO SAAVEDRA N°1440,Temuco,TIBURCIO SAAVEDRA N°1440 Temuco ,-38.7417891,-72.6272902,VIGENTE,,
LEY 19418 TERRITORIALES,JUNTA DE VECINOS,JUNTA DE VECINOS EVARISTO MARÍN,24,05/02/1990,0,,Temuco, Temuco ,-38.7383905,-72.5904598,VENCIDA,,
LEY 19418 TERRITORIALES,JUNTA DE VECINOS,JUNTA DE VECINOS UNIDAD DIECISIETE AMANECER,25,05/02/1990,116867,VENECIA N°2170,Temuco,VENECIA N°2170 Temuco ,-38.7586232,-72.6221348,VIGENTE,29/04/2016,
LEY 19418 TERRITORIALES,JUNTA DE VECINOS,JUNTA DE VECINOS N° 40 VILLA SUR,27,06/02/1990,116869,RAVENA CON FLORENCIA S/N,Temuco,RAVENA CON FLORENCIA S/N Temuco ,-38.7383905,-72.5904598,VIGENTE,,
LEY 19418 TERRITORIALES,JUNTA DE VECINOS,JUNTA DE VECINOS N°21 MAESTRANZA,28,06/02/1990,116870,DAVID PERRY N°0532,Temuco,DAVID PERRY N°0532 Temuco ,-38.7295962,-72.5744914,VIGENTE,26/09/1998,
LEY 19418 TERRITORIALES,JUNTA DE VECINOS,JUNTA DE VECINOS N° 48 MONTE VERDE,31,07/02/1990,0,MONTE VERDE,Temuco,MONTE VERDE Temuco ,-38.7339613,-72.6240757,VENCIDA,,
LEY 19418 TERRITORIALES,JUNTA DE VECINOS,JUNTA DE VECINOS TRAPIALES,32,07/02/1990,116874,CACIQUE LEMUNAO N°01715,Temuco,CACIQUE LEMUNAO N°01715 Temuco ,-38.7145217,-72.5595792,VIGENTE,28/09/1996,
LEY 19418 TERRITORIALES,JUNTA DE VECINOS,JUNTA DE VECINOS N°19 DE LOURDES,37,13/02/1990,116879,ALDUNATE N°0355,Temuco,ALDUNATE N°0355 Temuco ,-38.7307987,-72.5855258,VIGENTE,,
LEY 19418 TERRITORIALES,JUNTA DE VECINOS,JUNTA DE VECINOS N° 20 TUCAPEL,38,14/02/1990,116880,ZENTENO N°0325,Temuco,ZENTENO N°0325 Temuco ,-38.7308187,-72.5810879,VIGENTE,,
LEY 19418 TERRITORIALES,JUNTA DE VECINOS,JUNTA DE VECINOS LAS QUILAS,41,15/02/1990,116883,LOS CANELOS N°1461,Temuco,LOS CANELOS N°1461 Temuco ,-38.7480135,-72.6073708,VIGENTE,,
LEY 19418 TERRITORIALES,JUNTA DE VECINOS,JUNTA DE VECINOS 5 DE ABRIL,42,15/02/1990,116884,KOLOSSA N°1127,Temuco,KOLOSSA N°1127 Temuco ,-38.7213031,-72.5740874,VIGENTE,,
LEY 19418 TERRITORIALES,JUNTA DE VECINOS,JUNTA DE VECINOS N° 10 LOS LAURELES,46,20/02/1990,116888,CONSTITUCIÓN ESQ. RECREO S/N,Temuco,CONSTITUCIÓN ESQ. RECREO S/N Temuco ,-38.7276699,-72.6153633,VIGENTE,13/07/1996,
LEY 19418 TERRITORIALES,JUNTA DE VECINOS,JUNTA DE VECINOS TROMEN MOLLULCO,51,20/02/1990,116893,TROMEN ALTO,Temuco,TROMEN ALTO Temuco ,-38.6902984,-72.7334498,VENCIDA,,
LEY 19418 TERRITORIALES,JUNTA DE VECINOS,CENTRO DE MADRES HOGAR FELIZ,52,23/02/1990,116894,RÍO COLORADO N°0200,Temuco,RÍO COLORADO N°0200 Temuco ,-38.7510344,-72.6078422,VIGENTE,,
LEY 19418 TERRITORIALES,JUNTA DE VECINOS,JUNTA DE VECINOS ERNESTO BOHN,55,23/02/1990,116897,CENTENARIO N° 01106,Temuco,CENTENARIO N° 01106 Temuco ,-38.7227723,-72.5685681,VIGENTE,,
LEY 19418 TERRITORIALES,JUNTA DE VECINOS,JUNTA DE VECINOS N° 36 ESTADIO,64,26/02/1990,116906,SANTA TERESA N°138,Temuco,SANTA TERESA N°138 Temuco ,-38.7383905,-72.5904598,VIGENTE,,
LEY 19418 TERRITORIALES,JUNTA DE VECINOS,JUNTA DE VECINOS IMPERIAL,67,27/02/1990,116909,IMPERIAL N°40,Temuco,IMPERIAL N°40 Temuco ,-38.7442844,-72.6020651,VIGENTE,,
LEY 19418 TERRITORIALES,JUNTA DE VECINOS,JUNTA DE VECINOS VILLA TROMEN 11 A,73,28/02/1990,116915,MARÍA ÑIRRIPIL N°01671 - VILLA TROMEN,Temuco,MARÍA ÑIRRIPIL N°01671 - VILLA TROMEN Temuco ,-38.7243511,-72.6191577,VIGENTE,,
LEY 19418 TERRITORIALES,JUNTA DE VECINOS,CENTRO DE MADRES EVARISTO MARÍN,75,28/02/1990,0,,Temuco, Temuco ,-38.7383905,-72.5904598,VENCIDA,19/05/2005,
LEY 19418 TERRITORIALES,JUNTA DE VECINOS,JUNTA DE VECINOS VILLA LANIN,80,28/02/1990,0,,Temuco, Temuco ,-38.7383905,-72.5904598,VENCIDA,,
LEY 19418 TERRITORIALES,JUNTA DE VECINOS,JUNTA DE VECINOS LA REINA,82,08/04/1990,116924,CALCUPURA N°1142,Temuco,CALCUPURA N°1142 Temuco ,-38.7383905,-72.5904598,VIGENTE,,
LEY 19418 TERRITORIALES,JUNTA DE VECINOS,JUNTA DE VECINOS 39° B LOS RISCOS,83,09/04/1990,116925,RELONCAVI N°0350,Temuco,RELONCAVI N°0350 Temuco ,-38.7210498,-72.6186049,VIGENTE,26/09/1998,
LEY 19418 TERRITORIALES,JUNTA DE VECINOS,JUNTA DE VECINOS VILLA PEDRO DE VALDIVIA,86,06/06/1990,116928,AV. ARGENTINA N°0875,Temuco,AV. ARGENTINA N°0875 Temuco ,-38.7257707,-72.6104902,VIGENTE,,
LEY 19418 TERRITORIALES,JUNTA DE VECINOS,JUNTA DE VECINOS TRIGALES,87,22/06/1990,116929,JUAN MONTENEGRO N°02115,Temuco,JUAN MONTENEGRO N°02115 Temuco ,-38.7350278,-72.6315015,VENCIDA,,
LEY 19418 TERRITORIALES,JUNTA DE VECINOS,JUNTA DE VECINOS UNIÓN AMANECER,88,16/07/1990,116930,MONZA N°1950,Temuco,MONZA N°1950 Temuco ,-38.7556696,-72.623198,VIGENTE,,
LEY 19418 TERRITORIALES,JUNTA DE VECINOS,JUNTA DE VECINOS MOLCO CAUTÍN,91,17/09/1990,0,,Temuco, Temuco ,-38.7383905,-72.5904598,VENCIDA,,
LEY 19418 TERRITORIALES,JUNTA DE VECINOS,JUNTA DE VECINOS 5 LAUREL TROMEN,92,20/07/1990,0,,Temuco, Temuco ,-38.7383905,-72.5904598,VENCIDA,28/09/1996,
LEY 19418 TERRITORIALES,JUNTA DE VECINOS,JUNTA DE VECINOS EL MEMBRILLAR CHICO,93,01/07/1990,0,,Temuco, Temuco ,-38.7383905,-72.5904598,VENCIDA,,
LEY 19418 TERRITORIALES,JUNTA DE VECINOS,JUNTA DE VECINOS LAS LOMAS,94,27/07/1990,0,,Temuco, Temuco ,-38.7383905,-72.5904598,VENCIDA,,
LEY 19418 TERRITORIALES,JUNTA DE VECINOS,JUNTA DE VECINOS PIUTEN - LA ZANJA,95,23/07/1990,0,,Temuco, Temuco ,-38.7383905,-72.5904598,VENCIDA,,
LEY 19418 TERRITORIALES,JUNTA DE VECINOS,JUNTA DE VECINOS QUINAHUE,96,14/07/1990,0,,Temuco, Temuco ,-38.7383905,-72.5904598,VENCIDA,,
LEY 19418 TERRITORIALES,JUNTA DE VECINOS,JUNTA DE VECINOS NECHIFWE PLOM,97,08/08/1990,0,,Temuco, Temuco ,-38.7383905,-72.5904598,VENCIDA,,
LEY 19418 TERRITORIALES,JUNTA DE VECINOS,JUNTA DE VECINOS CUSACO,98,23/07/1990,0,,Temuco, Temuco ,-38.7383905,-72.5904598,VENCIDA,,
LEY 19418 TERRITORIALES,JUNTA DE VECINOS,JUNTA DE VECINOS REMOLINO MAQUEHUE MOLCO,99,11/08/1990,0,,Temuco, Temuco ,-38.7383905,-72.5904598,VENCIDA,,
LEY 19418 TERRITORIALES,JUNTA DE VECINOS,JUNTA DE VECINOS EL ALAMO DE BOTROLHUE NORTE,100,03/08/1990,0,,Temuco, Temuco ,-38.7383905,-72.5904598,VENCIDA,,
LEY 19418 TERRITORIALES,JUNTA DE VECINOS,JUNTA DE VECINOS CODOPILLE,101,18/08/1990,0,,Temuco, Temuco ,-38.7383905,-72.5904598,VENCIDA,,
LEY 19418 TERRITORIALES,JUNTA DE VECINOS,"JUNTA DE VECINOS BOLLILAO, RENANCO, MATAQUITO",102,04/08/1990,0,,Temuco, Temuco ,-38.7383905,-72.5904598,VENCIDA,09/04/2000,
LEY 19418 TERRITORIALES,JUNTA DE VECINOS,JUNTA DE VECINOS CHAPOD YAUYAHUEN,103,24/07/1990,0,,Temuco, Temuco ,-38.7383905,-72.5904598,VENCIDA,,
LEY 19418 TERRITORIALES,JUNTA DE VECINOS,JUNTA DE VECINOS QUILOCO CENTRAL,104,26/08/1990,0,,Temuco, Temuco ,-38.7383905,-72.5904598,VENCIDA,,
LEY 19418 TERRITORIALES,JUNTA DE VECINOS,JUNTA DE VECINOS PANCO,105,23/09/1990,0,,Temuco, Temuco ,-38.7383905,-72.5904598,VENCIDA,,
LEY 19418 TERRITORIALES,JUNTA DE VECINOS,JUNTA DE VECINOS CONOCO GRANDE,106,01/10/1990,0,,Temuco, Temuco ,-38.7383905,-72.5904598,VENCIDA,,
LEY 19418 TERRITORIALES,JUNTA DE VECINOS,JUNTA DE VECINOS COYAHUE,107,14/09/1990,0,,Temuco, Temuco ,-38.7383905,-72.5904598,VENCIDA,,
LEY 19418 TERRITORIALES,JUNTA DE VECINOS,JUNTA DE VECINOS RAPA MAQUEHUE,108,25/09/1990,0,,Temuco, Temuco ,-38.7383905,-72.5904598,VENCIDA,,
LEY 19418 TERRITORIALES,JUNTA DE VECINOS,JUNTA DE VECINOS VILLA BRASIL 2,109,04/10/1990,116951,CAREN S/N,Temuco,CAREN S/N Temuco ,-38.7278917,-72.5644181,VENCIDA,23/02/2000,
LEY 19418 TERRITORIALES,JUNTA DE VECINOS,JUNTA DE VECINOS MAQUEHUE - ZANJA,110,05/10/1990,0,,Temuco, Temuco ,-38.7383905,-72.5904598,VENCIDA,,
LEY 19418 TERRITORIALES,JUNTA DE VECINOS,JUNTA DE VECINOS CHAMPULLI,111,07/10/1990,0,,Temuco, Temuco ,-38.7383905,-72.5904598,VENCIDA,,
LEY 19418 TERRITORIALES,JUNTA DE VECINOS,JUNTA DE VECINOS PUENTE QUEPE - HUICHAHUE,112,01/10/1990,0,,Temuco, Temuco ,-38.7383905,-72.5904598,VENCIDA,,
LEY 19418 TERRITORIALES,JUNTA DE VECINOS,JUNTA DE VECINOS PAILLANAO,113,29/10/1990,0,,Temuco, Temuco ,-38.7383905,-72.5904598,VENCIDA,,
LEY 19418 TERRITORIALES,JUNTA DE VECINOS,JUNTA DE VECINOS TRUMPULO - MILLAHUIN,114,27/10/1990,0,,Temuco, Temuco ,-38.7383905,-72.5904598,VENCIDA,,
LEY 19418 TERRITORIALES,JUNTA DE VECINOS,JUNTA DE VECINOS SAN ANTONIO 27 A,115,07/11/1990,116957,CLARO SOLAR N°1411,Temuco,CLARO SOLAR N°1411 Temuco ,-38.7403999,-72.5829715,VIGENTE,24/08/1996,
LEY 19418 TERRITORIALES,JUNTA DE VECINOS,JUNTA DE VECINOS TRAYENCO PULIL,116,06/11/1990,0,,Temuco, Temuco ,-38.7383905,-72.5904598,VENCIDA,,
LEY 19418 TERRITORIALES,JUNTA DE VECINOS,JUNTA DE VECINOS CONOCO CHICO,117,06/11/1990,0,,Temuco, Temuco ,-38.7383905,-72.5904598,VENCIDA,,
LEY 19418 TERRITORIALES,JUNTA DE VECINOS,JUNTA DE VECINOS COLPANAO,118,26/10/1990,0,,Temuco, Temuco ,-38.7383905,-72.5904598,VENCIDA,,
LEY 19418 TERRITORIALES,JUNTA DE VECINOS,"JUNTA DE VECINOS CATRIMALAL, EL GUINDO, TRABUNCO Y EL ORREJON",119,21/12/1990,0,,Temuco, Temuco ,-38.7383905,-72.5904598,VENCIDA,,
LEY 19418 TERRITORIALES,JUNTA DE VECINOS,UNIÓN COMUNAL DE JUNTAS DE VECINOS URBANAS DE TEMUCO,120,28/12/1990,116962,BULNES N°345 2° PISO,Temuco,BULNES N°345 2° PISO Temuco ,-38.737056,-72.5885938,VIGENTE,,
LEY 19418 TERRITORIALES,JUNTA DE VECINOS,JUNTA DE VECINOS LIRCAY,121,18/12/1990,0,,Temuco, Temuco ,-38.7383905,-72.5904598,VENCIDA,,
LEY 19418 TERRITORIALES,JUNTA DE VECINOS,JUNTA DE VECINOS LICANCO CHICO,122,28/01/1991,0,,Temuco, Temuco ,-38.7383905,-72.5904598,VENCIDA,,
LEY 19418 TERRITORIALES,JUNTA DE VECINOS,JUNTA DE VECINOS MILLAHUECO - SAN MIGUEL,123,04/02/1991,0,,Temuco, Temuco ,-38.7383905,-72.5904598,VENCIDA,,
LEY 19418 TERRITORIALES,JUNTA DE VECINOS,JUNTA DE VECINOS LOS GUINDOS,124,11/03/1991,0,,Temuco, Temuco ,-38.7383905,-72.5904598,VENCIDA,,
LEY 19418 TERRITORIALES,JUNTA DE VECINOS,JUNTA DE VECINOS DEHUEPILLE,125,09/04/1991,0,,Temuco, Temuco ,-38.7383905,-72.5904598,VENCIDA,,
LEY 19418 TERRITORIALES,JUNTA DE VECINOS,JUNTA DE VECINOS ENTUCO - SAN VICENTE,126,11/05/1991,0,,Temuco, Temuco ,-38.7383905,-72.5904598,VENCIDA,,
LEY 19418 TERRITORIALES,JUNTA DE VECINOS,JUNTA DE VECINOS RINCONADA DE TROMEN,127,03/06/1991,0,,Temuco, Temuco ,-38.7383905,-72.5904598,VENCIDA,,
LEY 19418 TERRITORIALES,JUNTA DE VECINOS,JUNTA DE VECINOS ROBLE HUACHO,128,12/03/1991,0,,Temuco, Temuco ,-38.7383905,-72.5904598,VENCIDA,,
LEY 19418 TERRITORIALES,JUNTA DE VECINOS,JUNTA DE VECINOS RENACO BAJO,129,19/07/1991,0,,Temuco, Temuco ,-38.7383905,-72.5904598,VENCIDA,,
LEY 19418 TERRITORIALES,JUNTA DE VECINOS,JUNTA DE VECINOS VILLA LOS RIOS,130,25/07/1991,116972,AV. COSTANERA N°02120,Temuco,AV. COSTANERA N°02120 Temuco ,-38.721684,-72.5564315,VENCIDA,,
LEY 19418 TERRITORIALES,JUNTA DE VECINOS,JUNTA DE VECINOS VILLA LOS CACIQUES,131,04/08/1991,0,,Temuco, Temuco ,-38.7383905,-72.5904598,VENCIDA,,
LEY 19418 TERRITORIALES,JUNTA DE VECINOS,JUNTA DE VECINOS LICANCO,132,17/08/1991,0,,Temuco, Temuco ,-38.7383905,-72.5904598,VENCIDA,,
LEY 19418 TERRITORIALES,JUNTA DE VECINOS,JUNTA DE VECINOS EL MIRADOR,133,18/08/1991,0,,Temuco, Temuco ,-38.7383905,-72.5904598,VENCIDA,,
LEY 19418 TERRITORIALES,JUNTA DE VECINOS,JUNTA DE VECINOS VILLA ITALIA,134,21/08/1991,116976,PETRARCA N°01565 VILLA ITALIA,Temuco,PETRARCA N°01565 VILLA ITALIA Temuco ,-38.7383905,-72.5904598,VIGENTE,,
LEY 19418 TERRITORIALES,JUNTA DE VECINOS,JUNTA DE VECINOS SANQUILCO,135,20/08/1991,0,,Temuco, Temuco ,-38.7383905,-72.5904598,VENCIDA,,
LEY 19418 TERRITORIALES,JUNTA DE VECINOS,JUNTA DE VECINOS LICANCO CHICO,136,21/08/1991,0,,Temuco, Temuco ,-38.7383905,-72.5904598,VENCIDA,,
LEY 19418 TERRITORIALES,JUNTA DE VECINOS,JUNTA DE VECINOS BOTROLHUE NORTE TRAÑI - TRAÑI,137,03/09/1991,0,,Temuco, Temuco ,-38.7383905,-72.5904598,VENCIDA,,
LEY 19418 TERRITORIALES,JUNTA DE VECINOS,JUNTA DE VECINOS SANTA ELENA DE MAIPO,138,17/09/1991,116980,SAN JUAN N° 03521,Temuco,SAN JUAN N° 03521 Temuco ,-38.7548194,-72.6510679,VIGENTE,,
LEY 19418 TERRITORIALES,JUNTA DE VECINOS,JUNTA DE VECINOS EN FORMACIÓN LOS CACIQUES,139,07/09/1991,0,,Temuco, Temuco ,-38.7383905,-72.5904598,VENCIDA,,
LEY 19418 TERRITORIALES,JUNTA DE VECINOS,UNIÓN COMUNAL DE JUNTA DE VECINOS RURALES DE LA COMUNA DE TEMUCO,140,10/09/1991,116982,,Temuco, Temuco ,-38.7383905,-72.5904598,VENCIDA,,
LEY 19418 TERRITORIALES,JUNTA DE VECINOS,JUNTA DE VECINOS VILLA LANGDON,141,03/10/1991,116983,LANGDON N°01795,Temuco,LANGDON N°01795 Temuco ,-38.7232321,-72.556285,VIGENTE,,
LEY 19418 TERRITORIALES,JUNTA DE VECINOS,JUNTA DE VECINOS EL PINO DE MOLCO CAUTIN,142,09/11/1991,0,,Temuco, Temuco ,-38.7383905,-72.5904598,VENCIDA,,
LEY 19418 TERRITORIALES,JUNTA DE VECINOS,JUNTA DE VECINOS PAILLAOMAPU,143,22/10/1991,0,,Temuco, Temuco ,-38.7383905,-72.5904598,VENCIDA,,
LEY 19418 TERRITORIALES,JUNTA DE VECINOS,JUNTA DE VECINOS TROMEN BAJO,144,27/11/1991,0,,Temuco, Temuco ,-38.7383905,-72.5904598,VENCIDA,,
LEY 19418 TERRITORIALES,JUNTA DE VECINOS,JUNTA DE VECINOS LLEUPECO ÑILQUILCO,145,24/11/1991,0,,Temuco, Temuco ,-38.7383905,-72.5904598,VENCIDA,,
LEY 19418 TERRITORIALES,JUNTA DE VECINOS,JUNTA DE VECINOS TROMEN NAHUELHUAL,146,03/12/1991,0,,Temuco, Temuco ,-38.7383905,-72.5904598,VENCIDA,,
LEY 19418 TERRITORIALES,JUNTA DE VECINOS,JUNTA DE VECINOS ÑIRRIMAPU,147,03/12/1991,0,,Temuco, Temuco ,-38.7383905,-72.5904598,VENCIDA,,
LEY 19418 TERRITORIALES,JUNTA DE VECINOS,JUNTA DE VECINOS TROMEN MALLIN,148,18/12/1991,0,,Temuco, Temuco ,-38.7383905,-72.5904598,VENCIDA,,
LEY 19418 TERRITORIALES,JUNTA DE VECINOS,JUNTA DE VECINOS RALUNCOYAN,149,28/03/1992,0,,Temuco, Temuco ,-38.7383905,-72.5904598,VENCIDA,,
LEY 19418 TERRITORIALES,JUNTA DE VECINOS,JUNTA DE VECINOS VILLA ALAMEDA,150,14/07/1992,116992,ALESANDRIA N°01755,Temuco,ALESANDRIA N°01755 Temuco ,-38.7587065,-72.6313209,VIGENTE,,
LEY 19418 TERRITORIALES,JUNTA DE VECINOS,CENTRO DE MADRES SANTA GEMITA,151,13/07/1992,0,,Temuco, Temuco ,-38.7383905,-72.5904598,VENCIDA,,
LEY 19418 TERRITORIALES,JUNTA DE VECINOS,JUNTA DE VECINOS AMPLIACIÓN LAS QUILAS,152,28/07/1992,116994,LOS SAUCES N°0579,Temuco,LOS SAUCES N°0579 Temuco ,-38.7502259,-72.6119175,VIGENTE,,
LEY 19418 TERRITORIALES,JUNTA DE VECINOS,CENTRO DE MADRES PRIETO SUR,153,30/07/1992,0,,Temuco, Temuco ,-38.7383905,-72.5904598,VENCIDA,,
LEY 19418 TERRITORIALES,JUNTA DE VECINOS,JUNTA DE VECINOS VISTA VERDE,154,30/07/1992,116996,LAS NUTRIAS N°1610,Temuco,LAS NUTRIAS N°1610 Temuco ,-38.7534474,-72.6399467,VIGENTE,,
LEY 19418 TERRITORIALES,JUNTA DE VECINOS,JUNTA DE VECINOS GENERAL MACKENNA SUR,155,31/07/1992,116997,ALDUNATE N°1240,Temuco,ALDUNATE N°1240 Temuco ,-38.7466141,-72.5900291,VIGENTE,,
LEY 19418 TERRITORIALES,JUNTA DE VECINOS,JUNTA DE VECINOS CINCO MANZANOS,156,04/08/1992,0,,Temuco, Temuco ,-38.7383905,-72.5904598,VENCIDA,,
LEY 19418 TERRITORIALES,JUNTA DE VECINOS,CENTRO DE MADRES LAS ORQUIDEAS,157,06/08/1992,0,,Temuco, Temuco ,-38.7383905,-72.5904598,VENCIDA,,
LEY 19418 TERRITORIALES,JUNTA DE VECINOS,CENTRO DE MADRES LA ALBORADA,158,06/08/1992,0,,Temuco, Temuco ,-38.7383905,-72.5904598,VENCIDA,,
LEY 19418 TERRITORIALES,JUNTA DE VECINOS,CENTRO DE MADRES VILLA VALPARAÍSO,159,06/08/1992,117001,FRANCISCO DE LA LASTRA N° 01044,Temuco,FRANCISCO DE LA LASTRA N° 01044 Temuco ,-38.7309481,-72.5645334,VENCIDA,,
LEY 19418 TERRITORIALES,JUNTA DE VECINOS,CENTRO DE MADRES LA UNIÓN,160,10/08/1992,0,,Temuco, Temuco ,-38.7383905,-72.5904598,VENCIDA,,
LEY 19418 TERRITORIALES,JUNTA DE VECINOS,CENTRO DE MADRES VILLA ITALIA,161,05/08/1992,0,,Temuco, Temuco ,-38.7383905,-72.5904598,VENCIDA,,
LEY 19418 TERRITORIALES,JUNTA DE VECINOS,JUNTA DE VECINOS NUEVA REPÚBLICA,162,02/08/1992,0,,Temuco, Temuco ,-38.7383905,-72.5904598,VENCIDA,,
LEY 19418 TERRITORIALES,JUNTA DE VECINOS,CENTRO DE MADRES LAS CARMELITAS,163,07/08/1992,117005,RECREO N°0195,Temuco,RECREO N°0195 Temuco ,-38.7240905,-72.6142134,VIGENTE,,
LEY 19418 TERRITORIALES,JUNTA DE VECINOS,CENTRO DE MADRES ORDEN Y PATRIA,164,07/08/1992,0,,Temuco, Temuco ,-38.7383905,-72.5904598,VENCIDA,,
LEY 19418 TERRITORIALES,JUNTA DE VECINOS,CENTRO DE MADRES SAN NICÓLAS,165,11/08/1992,0,,Temuco, Temuco ,-38.7383905,-72.5904598,VENCIDA,,
LEY 19418 TERRITORIALES,JUNTA DE VECINOS,CENTRO DE MADRES MATECITO DE PLATA,166,12/08/1992,0,,Temuco, Temuco ,-38.7383905,-72.5904598,VENCIDA,,
LEY 19418 TERRITORIALES,JUNTA DE VECINOS,CENTRO DE MADRES EL ESFUERZO,167,15/08/1992,0,,Temuco, Temuco ,-38.7383905,-72.5904598,VENCIDA,,
LEY 19418 TERRITORIALES,JUNTA DE VECINOS,JUNTA DE VECINOS VILLA AUSTRAL,168,09/09/1992,117010,PUERTO EDÉN N°01855,Temuco,PUERTO EDÉN N°01855 Temuco ,-38.7588201,-72.6347736,VIGENTE,,
LEY 19418 TERRITORIALES,JUNTA DE VECINOS,JUNTA DE VECINOS N° 3 CARRERA,169,28/09/1992,117011,GENERAL BLANCO ENCALADA N°956,Temuco,GENERAL BLANCO ENCALADA N°956 Temuco ,-38.7416801,-72.5995911,VIGENTE,,
LEY 19418 TERRITORIALES,JUNTA DE VECINOS,JUNTA DE VECINOS VILLA RIVERA,170,28/09/1992,117012,RÍO VOLGA N°015 VILLA RIVERA,Temuco,RÍO VOLGA N°015 VILLA RIVERA Temuco ,-38.7237367,-72.5588627,VIGENTE,,
LEY 19418 TERRITORIALES,JUNTA DE VECINOS,JUNTA DE VECINOS THIERS,171,14/11/1992,0,,Temuco, Temuco ,-38.7383905,-72.5904598,VENCIDA,,
LEY 19418 TERRITORIALES,JUNTA DE VECINOS,JUNTA DE VECINOS TRAIPO,172,25/11/1992,0,,Temuco, Temuco ,-38.7383905,-72.5904598,VENCIDA,,
LEY 19418 TERRITORIALES,JUNTA DE VECINOS,JUNTA DE VECINOS LA RIBERA CENTRO,173,21/12/1992,117015,RÍO INDO N°445,Temuco,RÍO INDO N°445 Temuco ,-38.7253093,-72.5581868,VIGENTE,,
LEY 19418 TERRITORIALES,JUNTA DE VECINOS,JUNTA DE VECINOS VICTORIA,174,21/11/2005,117016,LOS PARRONES N°0525,Temuco,LOS PARRONES N°0525 Temuco ,-38.7181012,-72.6276612,VIGENTE,13/07/1996,
LEY 19418 TERRITORIALES,JUNTA DE VECINOS,JUNTA DE VECINOS EL PROGRESO DE LANIN,175,16/03/1993,117017,LARAQUETE N° 0786,Temuco,LARAQUETE N° 0786 Temuco ,-38.7232998,-72.607413,VENCIDA,23/06/1996,
LEY 19418 TERRITORIALES,JUNTA DE VECINOS,JUNTA DE VECINOS VILLA SAN PATRICIO,176,01/04/1993,117018,CALLE DARWIN N°2376,Temuco,CALLE DARWIN N°2376 Temuco ,-38.7383905,-72.5904598,VENCIDA,,
LEY 19418 TERRITORIALES,JUNTA DE VECINOS,JUNTA DE VECINOS SARITA GAJARDO,177,30/04/1993,117019,ANDRÉS BELLO N° 1625,Temuco,ANDRÉS BELLO N° 1625 Temuco ,-38.7430612,-72.5802796,VENCIDA,,
LEY 19418 TERRITORIALES,JUNTA DE VECINOS,JUNTA DE VECINOS COHUILGUE,178,04/05/1993,0,,Temuco, Temuco ,-38.7383905,-72.5904598,VENCIDA,,
LEY 19418 TERRITORIALES,JUNTA DE VECINOS,JUNTA DE VECINOS SANTA LUCIA,179,14/05/1993,117021,LOS BOLDOS N°755,Temuco,LOS BOLDOS N°755 Temuco ,-38.7429854,-72.5767643,VENCIDA,20/02/2005,
LEY 19418 TERRITORIALES,JUNTA DE VECINOS,JUNTA DE VECINOS VILLA QUINTO CENTENARIO,180,02/06/1993,117022,12 DE OCTUBRE N°0530,Temuco,12 DE OCTUBRE N°0530 Temuco ,-38.7198507,-72.6156944,VIGENTE,,
LEY 19418 TERRITORIALES,JUNTA DE VECINOS,JUNTA DE VECINOS 21 BARROS ARANA,181,21/06/1993,117023,ORELLA N°0232,Temuco,ORELLA N°0232 Temuco ,-38.7324044,-72.5763612,VENCIDA,15/11/2013,
LEY 19418 TERRITORIALES,JUNTA DE VECINOS,JUNTA DE VECINOS SECTOR N° 3 DE CAMPOS DEPORTIVOS,182,09/07/1993,117024,EDUARDO BARRIOS N°230 CAMPOS DEPORTIVOS,Temuco,EDUARDO BARRIOS N°230 CAMPOS DEPORTIVOS Temuco ,-38.7383905,-72.5904598,VIGENTE,13/09/1996,
LEY 19418 TERRITORIALES,JUNTA DE VECINOS,JUNTA DE VECINOS N° 38 EL TRANSITO,183,06/10/1993,117025,RÍO DON N° 0611,Temuco,RÍO DON N° 0611 Temuco ,-38.7224492,-72.5548728,VIGENTE,,
LEY 19418 TERRITORIALES,JUNTA DE VECINOS,JUNTA DE VECINOS PADRE ALBERTO HURTADO CRUCHAGA,184,20/10/1993,0,,Temuco, Temuco ,-38.7383905,-72.5904598,VENCIDA,,
LEY 19418 TERRITORIALES,JUNTA DE VECINOS,JUNTA DE VECINOS VILLA LA PORTADA,185,21/10/1993,117027,PAILLAL N° 2455,Temuco,PAILLAL N° 2455 Temuco ,-38.7195007,-72.565163,VIGENTE,18/08/1996,
LEY 19418 TERRITORIALES,JUNTA DE VECINOS,JUNTA DE VECINOS VILLA MANKEMALEN,186,07/12/1993,0,,Temuco, Temuco ,-38.7383905,-72.5904598,VENCIDA,,
LEY 19418 TERRITORIALES,JUNTA DE VECINOS,JUNTA DE VECINOS LITVANYI,187,23/05/1994,117029,2 ORIENTE N° 2740,Temuco,2 ORIENTE N° 2740 Temuco ,-38.7237932,-72.5612355,VIGENTE,12/06/2004,
LEY 19418 TERRITORIALES,JUNTA DE VECINOS,JUNTA DE VECINOS VILLA FLORENCIA,188,27/05/1994,117030,PUERTO EDEN N°01855,Temuco,PUERTO EDEN N°01855 Temuco ,-38.7588201,-72.6347736,VIGENTE,29/05/1994,
LEY 19418 TERRITORIALES,JUNTA DE VECINOS,JUNTA DE VECINOS VILLA CAUTÍN,189,04/08/1994,117031,CAPRI N° 2002,Temuco,CAPRI N° 2002 Temuco ,-38.75435,-72.6144,VIGENTE,,
LEY 19418 TERRITORIALES,JUNTA DE VECINOS,JUNTA DE VECINOS ANDINA NORTE,190,18/08/1994,117032,HUASQUINTA N°01180,Temuco,HUASQUINTA N°01180 Temuco ,-38.7107378,-72.626759,VIGENTE,27/09/2008,
LEY 19418 TERRITORIALES,JUNTA DE VECINOS,JUNTA DE VECINOS VILLA SAN EUGENIO,191,23/09/1994,117033,BOYECO N°0760,Temuco,BOYECO N°0760 Temuco ,-38.7168987,-72.621193,VIGENTE,,
LEY 19418 TERRITORIALES,JUNTA DE VECINOS,JUNTA DE VECINOS MATTA SUR,192,25/10/1994,117034,SAN ANDRÉS N°1105,Temuco,SAN ANDRÉS N°1105 Temuco ,-38.7460892,-72.584554,VIGENTE,09/04/2000,
LEY 19418 TERRITORIALES,JUNTA DE VECINOS,JUNTA DE VECINOS TRUF - TRUF,193,02/11/1994,0,,Temuco, Temuco ,-38.7383905,-72.5904598,VENCIDA,,
LEY 19418 TERRITORIALES,JUNTA DE VECINOS,JUNTA DE VECINOS REMOLINOS MAQUEHUE,194,04/11/1994,0,,Temuco, Temuco ,-38.7383905,-72.5904598,VENCIDA,,
LEY 19418 TERRITORIALES,JUNTA DE VECINOS,JUNTA DE VECINOS VILLA ARAUCANA,195,21/10/1994,117037,,Temuco, Temuco ,-38.7383905,-72.5904598,VENCIDA,,
LEY 19418 TERRITORIALES,JUNTA DE VECINOS,JUNTA DE VECINOS VILLA IRMA,196,11/11/1994,117038,PAVIA N°1710 VILLA IRMA,Temuco,PAVIA N°1710 VILLA IRMA Temuco ,-38.7383905,-72.5904598,VIGENTE,,
LEY 19418 TERRITORIALES,JUNTA DE VECINOS,JUNTA DE VECINOS PANAMERICA SUR,197,10/11/1994,0,,Temuco, Temuco ,-38.7383905,-72.5904598,VENCIDA,,
LEY 19418 TERRITORIALES,JUNTA DE VECINOS,JUNTA DE VECINOS VILLA GALICIA I,198,28/11/1994,117040,PLUTÓN N° 02036 VILLA GALICIA I,Temuco,PLUTÓN N° 02036 VILLA GALICIA I Temuco ,-38.7537754,-72.6383085,VIGENTE,,
LEY 19418 TERRITORIALES,JUNTA DE VECINOS,JUNTA DE VECINOS LOS ARAUCANOS,199,01/12/1994,0,,Temuco, Temuco ,-38.7383905,-72.5904598,VENCIDA,,
LEY 19418 TERRITORIALES,JUNTA DE VECINOS,JUNTA DE VECINOS VILLA LOS HEROES DE LA CONCEPCIÓN,200,07/12/1994,117042,CARLOS MORALES N°01980,Temuco,CARLOS MORALES N°01980 Temuco ,-38.73931,-72.6310636,VIGENTE,,
LEY 19418 TERRITORIALES,JUNTA DE VECINOS,JUNTA DE VECINOS PORVENIR,201,23/12/1994,117043,AV. HUERFANOS N°01459,Temuco,AV. HUERFANOS N°01459 Temuco ,-38.7169313,-72.5564132,VIGENTE,,
LEY 19418 TERRITORIALES,JUNTA DE VECINOS,JUNTA DE VECINOS VILLA NEHUEN,202,23/04/1995,117044,VILLA NEHUEN,Temuco,VILLA NEHUEN Temuco ,-38.7465679,-72.5831447,VIGENTE,,
LEY 19418 TERRITORIALES,JUNTA DE VECINOS,JUNTA DE VECINOS VISTA HERMOSA,203,31/05/1995,0,,Temuco, Temuco ,-38.7383905,-72.5904598,VENCIDA,,
LEY 19418 TERRITORIALES,JUNTA DE VECINOS,JUNTA DE VECINOS PADRE ALBERTO HURTADO,204,12/07/1995,0,,Temuco, Temuco ,-38.7383905,-72.5904598,VENCIDA,,17/03/2007
LEY 19418 TERRITORIALES,JUNTA DE VECINOS,JUNTA DE VECINOS VILLA MAIPO,205,25/07/1995,117047,MARGA MARGA N°1710,Temuco,MARGA MARGA N°1710 Temuco ,-38.7528976,-72.6332653,VIGENTE,,
LEY 19418 TERRITORIALES,JUNTA DE VECINOS,JUNTA DE VECINOS LOMAS DE HUITRAN II,206,24/08/1995,0,,Temuco, Temuco ,-38.7383905,-72.5904598,VENCIDA,,
LEY 19418 TERRITORIALES,JUNTA DE VECINOS,JUNTA DE VECINOS JUAN PABLO II,207,29/08/1995,0,,Temuco, Temuco ,-38.7383905,-72.5904598,VENCIDA,,
LEY 19418 TERRITORIALES,JUNTA DE VECINOS,JUNTA DE VECINOS AMPLIACIÓN SANTA ELENA,208,22/09/1995,117050,MANUEL MONTT N°2008,Temuco,MANUEL MONTT N°2008 Temuco ,-38.740381,-72.574813,VENCIDA,,
LEY 19418 TERRITORIALES,JUNTA DE VECINOS,JUNTA DE VECINOS POBLACIÓN MEZA,209,06/11/1995,0,,Temuco, Temuco ,-38.7383905,-72.5904598,VENCIDA,,
LEY 19418 TERRITORIALES,JUNTA DE VECINOS,JUNTA DE VECINOS VILLA LAS ESTRELLAS,210,09/11/1995,117052,QUILACOYA N°0630,Temuco,QUILACOYA N°0630 Temuco ,-38.7273158,-72.6049146,VIGENTE,,
LEY 19418 TERRITORIALES,JUNTA DE VECINOS,JUNTA DE VECINOS ALTOS DE SANTA ELENA DE MAIPO,211,27/11/1995,0,,Temuco, Temuco ,-38.7383905,-72.5904598,VENCIDA,,
LEY 19418 TERRITORIALES,JUNTA DE VECINOS,JUNTA DE VECINOS AMPLIACIÓN AMANECER,213,26/12/1995,117054,MILANO N° 01510,Temuco,MILANO N° 01510 Temuco ,-38.759757,-72.6261814,VIGENTE,,
LEY 19418 TERRITORIALES,JUNTA DE VECINOS,JUNTA DE VECINOS 21 DE MAYO,215,29/12/1995,117056,PARMA N°1850 AMANECER,Temuco,PARMA N°1850 AMANECER Temuco ,-38.7383905,-72.5904598,VIGENTE,,
LEY 19418 TERRITORIALES,JUNTA DE VECINOS,JUNTA DE VECINOS LOS ECOLOGICOS,216,15/01/1996,0,,Temuco, Temuco ,-38.7383905,-72.5904598,VENCIDA,,
LEY 19418 TERRITORIALES,JUNTA DE VECINOS,JUNTA DE VECINOS LABRANZA SECTOR PONIENTE,217,18/01/1996,117058,PASAJA ROSA N°110,Temuco,PASAJA ROSA N°110 Temuco ,-38.7667693,-72.7599994,VIGENTE,,
LEY 19418 TERRITORIALES,JUNTA DE VECINOS,JUNTA DE VECINOS CONUN - HUENU,218,23/01/1996,0,,Temuco, Temuco ,-38.7383905,-72.5904598,VENCIDA,,
LEY 19418 TERRITORIALES,JUNTA DE VECINOS,JUNTA DE VECINOS VILLA ALEMANA,219,30/01/1996,117060,,Temuco, Temuco ,-38.7383905,-72.5904598,VIGENTE,,
LEY 19418 TERRITORIALES,JUNTA DE VECINOS,JUNTA DE VECINOS PALACIO PUNTILLA,220,06/02/1996,117061,,Temuco, Temuco ,-38.7383905,-72.5904598,VIGENTE,,
LEY 19418 TERRITORIALES,JUNTA DE VECINOS,JUNTA DE VECINOS ESPINOZA ALTO,221,26/02/1996,0,,Temuco, Temuco ,-38.7383905,-72.5904598,VENCIDA,,
LEY 19418 TERRITORIALES,JUNTA DE VECINOS,JUNTA DE VECINOS POBLACIÓN AURORA,222,11/03/1996,117063,3 NORTE N°01020,Temuco,3 NORTE N°01020 Temuco ,-38.7224767,-72.5619676,VIGENTE,,
LEY 19418 TERRITORIALES,JUNTA DE VECINOS,JUNTA DE VECINOS VILLA ALTAMIRA II,223,16/04/1996,0,,Temuco, Temuco ,-38.7383905,-72.5904598,VENCIDA,,
LEY 19418 TERRITORIALES,JUNTA DE VECINOS,JUNTA DE VECINOS FRAY BARTOLOMÉ,224,29/04/1996,0,,Temuco, Temuco ,-38.7383905,-72.5904598,VENCIDA,,
LEY 19418 TERRITORIALES,JUNTA DE VECINOS,JUNTA DE VECINOS VILLA EL BOSQUE,225,06/05/1996,117066,calle Alfonso Taito N°198,Temuco,calle Alfonso Taito N°198 Temuco ,-38.7222262,-72.6326846,VIGENTE,30/12/2022,
LEY 19418 TERRITORIALES,JUNTA DE VECINOS,JUNTA DE VECINOS VILLA SANTIAGO DOS,226,06/05/1996,117067,PABLO NERUDA N°0695,Temuco,PABLO NERUDA N°0695 Temuco ,-38.7173866,-72.6265972,VIGENTE,29/08/2010,
LEY 19418 TERRITORIALES,JUNTA DE VECINOS,JUNTA DE VECINOS SANTA ISABEL,227,22/05/1996,117068,LAS VEGAS N°01656,Temuco,LAS VEGAS N°01656 Temuco ,-38.7205166,-72.6203102,VIGENTE,,
LEY 19418 TERRITORIALES,JUNTA DE VECINOS,JUNTA DE VECINOS VILLA EL SALAR,228,28/05/1996,117069,POZO AL MONTE N°0890,Temuco,POZO AL MONTE N°0890 Temuco ,-38.7134165,-72.6273826,VIGENTE,,
LEY 19418 TERRITORIALES,JUNTA DE VECINOS,JUNTA DE VECINOS VILLA QUINTA LA FRONTERA,229,16/06/1996,117070,QUITRATUE N°135,Temuco,QUITRATUE N°135 Temuco ,-38.7275966,-72.5630677,VIGENTE,,
LEY 19418 TERRITORIALES,JUNTA DE VECINOS,JUNTA DE VECINOS LOS RISCOS 4,230,24/06/1996,117071,COYHAIQUE N° 0639,Temuco,COYHAIQUE N° 0639 Temuco ,-38.7183828,-72.6167573,VENCIDA,,
LEY 19418 TERRITORIALES,JUNTA DE VECINOS,JUNTA DE VECINOS ZARAGOZA,231,05/08/1996,117072,,Temuco, Temuco ,-38.7383905,-72.5904598,VENCIDA,,
LEY 19418 TERRITORIALES,JUNTA DE VECINOS,JUNTA DE VECINOS VILLA ANDINA DEPARTAMENTOS,232,16/08/1996,0,,Temuco, Temuco ,-38.7383905,-72.5904598,VENCIDA,,
LEY 19418 TERRITORIALES,JUNTA DE VECINOS,JUNTA DE VECINOS 1° DE MAYO,233,27/08/1996,117074,AV. JAVIERA CARRERA N° 0280,Temuco,AV. JAVIERA CARRERA N° 0280 Temuco ,-38.7210898,-72.6247176,VIGENTE,,
LEY 19418 TERRITORIALES,JUNTA DE VECINOS,JUNTA DE VECINOS LOS VOLCANES DE VILLA ANDINA,234,30/09/1996,117075,CODPA N°02160,Temuco,CODPA N°02160 Temuco ,-38.7143353,-72.6261757,VIGENTE,,
LEY 19418 TERRITORIALES,JUNTA DE VECINOS,JUNTA DE VECINOS VILLA ANDINA 2,235,07/10/1996,117076,CARIQUIÑA N°01230,Temuco,CARIQUIÑA N°01230 Temuco ,-38.7107998,-72.6239689,VIGENTE,,
LEY 19418 TERRITORIALES,JUNTA DE VECINOS,JUNTA DE VECINOS LOS BOLDOS - RAMBERGA,236,08/10/1996,0,,Temuco, Temuco ,-38.7383905,-72.5904598,VENCIDA,,
LEY 19418 TERRITORIALES,JUNTA DE VECINOS,JUNTA DE VECINOS TRUMPULU CHICO,237,09/10/1996,0,,Temuco, Temuco ,-38.7383905,-72.5904598,VENCIDA,,
LEY 19418 TERRITORIALES,JUNTA DE VECINOS,JUNTA DE VECINOS VILLA LAUTARO,238,11/11/1996,117079,LAS ALEGRÍAS N°0297,Temuco,LAS ALEGRÍAS N°0297 Temuco ,-38.7208093,-72.6251651,VIGENTE,,
LEY 19418 TERRITORIALES,JUNTA DE VECINOS,JUNTA DE VECINOS LA ESPAÑOLA,239,14/11/1996,0,12 DE OCTUBRE # 0530 VILLA QUINTO CENTENARIO,Temuco,12 DE OCTUBRE # 0530 VILLA QUINTO CENTENARIO Temuco ,25.791394,-100.333651,VENCIDA,,
LEY 19418 TERRITORIALES,JUNTA DE VECINOS,JUNTA DE VECINOS CLOTARIO BLEST,240,14/11/1996,117081,ESTANISLAO S/N,Temuco,ESTANISLAO S/N Temuco ,-38.7373899,-72.6396324,VENCIDA,,
LEY 19418 TERRITORIALES,JUNTA DE VECINOS,JUNTA DE VECINOS VILLA TROMEN LAFQUEN,241,17/02/1997,117082,REHUE COYAN N° 0426,Temuco,REHUE COYAN N° 0426 Temuco ,-38.7383905,-72.5904598,VIGENTE,,
LEY 19418 TERRITORIALES,JUNTA DE VECINOS,JUNTA DE VECINOS NUEVA ESPERANZA,242,10/03/1997,117083,,Temuco, Temuco ,-38.7383905,-72.5904598,VENCIDA,,
LEY 19418 TERRITORIALES,JUNTA DE VECINOS,JUNTA DE VECINOS PAMPA GANADEROS,243,05/04/1997,0,,Temuco, Temuco ,-38.7383905,-72.5904598,VENCIDA,05/05/2007,
LEY 19418 TERRITORIALES,JUNTA DE VECINOS,JUNTA DE VECINOS VILLA LOS CONDORES,244,04/08/1997,0,,Temuco, Temuco ,-38.7383905,-72.5904598,VENCIDA,,
LEY 19418 TERRITORIALES,JUNTA DE VECINOS,JUNTA DE VECINOS AMPLIACIÓN VICTORIA,245,14/10/1997,117086,LOS PARRONES N°02074,Temuco,LOS PARRONES N°02074 Temuco ,-38.718484,-72.6262545,VIGENTE,,
LEY 19418 TERRITORIALES,JUNTA DE VECINOS,JUNTA DE VECINOS VILLA AQUELARRE,246,19/11/1997,117087,LLAMAS N°1825,Temuco,LLAMAS N°1825 Temuco ,-38.7533259,-72.6207417,VIGENTE,,
LEY 19418 TERRITORIALES,JUNTA DE VECINOS,JUNTA DE VECINOS VILLA CRISTOBAL COLÓN,247,23/03/1998,117088,AILLAN MARILLAN N°115,Temuco,AILLAN MARILLAN N°115 Temuco ,-38.7204415,-72.6216246,VIGENTE,,
LEY 19418 TERRITORIALES,JUNTA DE VECINOS,JUNTA DE VECINOS NEVADOS ANDINOS,248,30/03/1998,117089,INDEPENDENCIA N°0705,Temuco,INDEPENDENCIA N°0705 Temuco ,-38.7172745,-72.6187146,VIGENTE,,
LEY 19418 TERRITORIALES,JUNTA DE VECINOS,JUNTA DE VECINOS ALTOS DE SAN ISIDRO,249,22/08/1998,117090,LOS ROBLES N° 0430-A,Temuco,LOS ROBLES N° 0430-A Temuco ,-38.7383905,-72.5904598,VIGENTE,,
LEY 19418 TERRITORIALES,JUNTA DE VECINOS,JUNTA DE VECINOS EL SALITRE,251,18/01/1999,117092,TILAMA S/N,Temuco,TILAMA S/N Temuco ,-38.7116685,-72.6205284,VIGENTE,,
LEY 19418 TERRITORIALES,JUNTA DE VECINOS,JUNTA DE VECINOS LOS CREADORES,252,17/03/1999,117093,LOS MUSICOS ESQ. LOS CREADORES S/N FUNDO EL CARMEN,Temuco,LOS MUSICOS ESQ. LOS CREADORES S/N FUNDO EL CARMEN Temuco ,-38.71667,-72.65183,VIGENTE,,
LEY 19418 TERRITORIALES,JUNTA DE VECINOS,JUNTA DE VECINOS ABRAHAM LINCOLN,253,14/05/1999,117094,RÍO COLORADO N°0200,Temuco,RÍO COLORADO N°0200 Temuco ,-38.7510344,-72.6078422,VIGENTE,,
LEY 19418 TERRITORIALES,JUNTA DE VECINOS,JUNTA DE VECINOS VILLA ANTUMALEN,254,09/11/1999,117095,ISLA GUAFO N° 03459,Temuco,ISLA GUAFO N° 03459 Temuco ,-38.7110824,-72.5482458,VIGENTE,,
LEY 19418 TERRITORIALES,JUNTA DE VECINOS,JUNTA DE VECINOS VILLA PARQUE ALCANTARA,255,23/12/1999,0,,Temuco, Temuco ,-38.7383905,-72.5904598,VENCIDA,,
LEY 19418 TERRITORIALES,JUNTA DE VECINOS,JUNTA DE VECINOS LOS ALAMOS DE LABRANZA,256,29/02/2000,117097,LOS ALAMOS CON LOS LAURELES S/N - LABRANZA,Temuco,LOS ALAMOS CON LOS LAURELES S/N - LABRANZA Temuco ,-38.7662225,-72.7503687,VIGENTE,,
LEY 19418 TERRITORIALES,JUNTA DE VECINOS,JUNTA DE VECINOS UNIÓN LOS LAURELES,257,26/04/2000,117098,PEDRO DE VALDIVIA N° 02840,Temuco,PEDRO DE VALDIVIA N° 02840 Temuco ,-38.7123809,-72.6341408,VIGENTE,,
LEY 19418 TERRITORIALES,JUNTA DE VECINOS,JUNTA DE VECINOS LOS PINOS,258,07/08/2000,117099,MON - REPOZ N° 27,Temuco,MON - REPOZ N° 27 Temuco ,-38.7703793,-72.760522,VIGENTE,,
LEY 19418 TERRITORIALES,JUNTA DE VECINOS,JUNTA DE VECINOS NUEVO AMANECER,259,25/09/2000,0,,Temuco, Temuco ,-38.7383905,-72.5904598,VENCIDA,,
LEY 19418 TERRITORIALES,JUNTA DE VECINOS,JUNTA DE VECINOS VILLA ARQUENCO,260,25/06/2001,117101,ARCALAFQUEN S/N VILLA ARQUENCO,Temuco,ARCALAFQUEN S/N VILLA ARQUENCO Temuco ,-38.7104634,-72.6344308,VIGENTE,,
LEY 19418 TERRITORIALES,JUNTA DE VECINOS,JUNTA DE VECINOS SAN GABRIEL DE BOTROLHUE,261,23/07/2001,117102,CAMINO LABRANZA KM. 7.5,Temuco,CAMINO LABRANZA KM. 7.5 Temuco ,-38.7631603,-72.725001,VIGENTE,,
LEY 19418 TERRITORIALES,JUNTA DE VECINOS,JUNTA DE VECINOS MI CASA,262,06/08/2001,117103,,Temuco, Temuco ,-38.7383905,-72.5904598,VENCIDA,,
LEY 19418 TERRITORIALES,JUNTA DE VECINOS,JUNTA DE VECINOS POBLACIÓN LLAIMA,263,20/08/2001,117104,CALBUCO N° 699 - POBLACIÓN LLAIMA,Temuco,CALBUCO N° 699 - POBLACIÓN LLAIMA Temuco ,-38.7383905,-72.5904598,VIGENTE,,
LEY 19418 TERRITORIALES,JUNTA DE VECINOS,JUNTA DE VECINOS VILLA CAUTÍN 2,264,10/09/2001,117105,VICENCIA CON ASINARA S/N,Temuco,VICENCIA CON ASINARA S/N Temuco ,-38.7531378,-72.6129264,VIGENTE,,
LEY 19418 TERRITORIALES,JUNTA DE VECINOS,JUNTA DE VECINOS EL PARQUE,265,28/11/2001,117106,ENRIQUE RODO S/N,Temuco,ENRIQUE RODO S/N Temuco ,-38.7383905,-72.5904598,VIGENTE,,
LEY 19418 TERRITORIALES,JUNTA DE VECINOS,JUNTA DE VECINOS EL CARMEN,266,14/01/2002,117107,JORGE TEILLER N°0520,Temuco,JORGE TEILLER N°0520 Temuco ,-38.7103219,-72.6599497,VIGENTE,,
LEY 19418 TERRITORIALES,JUNTA DE VECINOS,JUNTA DE VECINOS VILLA CONAVICOOP,267,07/05/2002,117108,VOLCÁN VILLARRICA N° 0472,Temuco,VOLCÁN VILLARRICA N° 0472 Temuco ,-38.7383905,-72.5904598,VIGENTE,,
LEY 19418 TERRITORIALES,JUNTA DE VECINOS,JUNTA DE VECINOS ISRAEL INDUSTRIAL,268,27/06/2002,0,SUECIA N°03827,Temuco,SUECIA N°03827 Temuco ,-38.7383905,-72.5904598,VENCIDA,,
LEY 19418 TERRITORIALES,JUNTA DE VECINOS,JUNTA DE VECINOS LOS RISCOS 3,269,12/08/2002,117110,COYHAIQUE N° 0690 PEDRO DE VALDIVIA,Temuco,COYHAIQUE N° 0690 PEDRO DE VALDIVIA Temuco ,-38.7383905,-72.5904598,VIGENTE,,
LEY 19418 TERRITORIALES,JUNTA DE VECINOS,JUNTA DE VECINOS NUEVA GALICIA,270,01/10/2002,117111,VENUS N°2404,Temuco,VENUS N°2404 Temuco ,-38.7571119,-72.6377502,VIGENTE,,
LEY 19418 TERRITORIALES,JUNTA DE VECINOS,JUNTA DE VECINOS VILLA CAUPOLICAN,271,17/01/2003,117112,FRANCISCO COLIHUINCA N°01927,Temuco,FRANCISCO COLIHUINCA N°01927 Temuco ,-38.7383905,-72.5904598,VIGENTE,,
LEY 19418 TERRITORIALES,JUNTA DE VECINOS,JUNTA DE VECINOS SAUCES DE TROMEN MALLIN,272,25/07/2003,117113,CURIÑANCO N°40,Temuco,CURIÑANCO N°40 Temuco ,-38.7242392,-72.6220698,VIGENTE,,
LEY 19418 TERRITORIALES,JUNTA DE VECINOS,JUNTA DE VECINOS FUTURO,273,29/09/2003,117114,AV. ARGENTINA N°0131,Temuco,AV. ARGENTINA N°0131 Temuco ,-38.7383905,-72.5904598,VIGENTE,,
LEY 19418 TERRITORIALES,JUNTA DE VECINOS,JUNTA DE VECINOS LOS POETAS,274,22/12/2003,117115,PORTALES N°2030,Temuco,PORTALES N°2030 Temuco ,-38.7399978,-72.5737608,VIGENTE,,
LEY 19418 TERRITORIALES,JUNTA DE VECINOS,JUNTA DE VECINOS GABRIEL MILLAHUEL - RAPA,275,29/01/2004,0,,Temuco, Temuco ,-38.7383905,-72.5904598,VENCIDA,,
LEY 19418 TERRITORIALES,JUNTA DE VECINOS,JUNTA DE VECINOS PLAZAS DE CHIVILCAN,276,09/02/2004,0,,Temuco, Temuco ,-38.7383905,-72.5904598,VENCIDA,,
LEY 19418 TERRITORIALES,JUNTA DE VECINOS,JUNTA DE VECINOS NUEVO MUNDO,277,11/03/2004,117118,TEGUCIGALPA N° 3381,Temuco,TEGUCIGALPA N° 3381 Temuco ,-38.7074561,-72.5471846,VIGENTE,,
LEY 19418 TERRITORIALES,JUNTA DE VECINOS,JUNTA DE VECINOS NUESTRA SEÑORA DEL CARMEN,278,08/06/2004,0,,Temuco, Temuco ,-38.7383905,-72.5904598,VENCIDA,,
LEY 19418 TERRITORIALES,JUNTA DE VECINOS,JUNTA DE VECINOS UNIÓN PLAZAS DE CHIVILCAN,279,21/06/2004,117120,SERGIO GAJARDO N°01339,Temuco,SERGIO GAJARDO N°01339 Temuco ,-38.7193563,-72.6083023,VENCIDA,,
LEY 19418 TERRITORIALES,JUNTA DE VECINOS,JUNTA DE VECINOS VILLA DEL RÍO,280,12/08/2004,117121,RÍO COLORADO N°02746,Temuco,RÍO COLORADO N°02746 Temuco ,-38.7188313,-72.5551543,VIGENTE,,
LEY 19418 TERRITORIALES,JUNTA DE VECINOS,JUNTA DE VECINOS VILLA ALLIPEN,281,17/08/2004,117122,CALPUCURA N° 402,Temuco,CALPUCURA N° 402 Temuco ,-38.7323066,-72.571871,VENCIDA,,
LEY 19418 TERRITORIALES,JUNTA DE VECINOS,JUNTA DE VECINOS INDEPENDENCIA,282,10/09/2004,117123,PUNTILLA N° 0740,Temuco,PUNTILLA N° 0740 Temuco ,-38.7370437,-72.5655531,VENCIDA,,
LEY 19418 TERRITORIALES,JUNTA DE VECINOS,JUNTA DE VECINOS LOS LAGOS DEL VALLE VERDE,283,07/10/2004,117124,LAGO PEÑUELA N° 401,Temuco,LAGO PEÑUELA N° 401 Temuco ,-38.7383905,-72.5904598,VIGENTE,,
LEY 19418 TERRITORIALES,JUNTA DE VECINOS,JUNTA DE VECINOS BOTROLHUE SUR,284,11/02/2005,0,,Temuco, Temuco ,-38.7383905,-72.5904598,VENCIDA,,
LEY 19418 TERRITORIALES,JUNTA DE VECINOS,JUNTA DE VECINOS ALTOS DE PUMALAL,285,09/03/2005,117126,,Temuco, Temuco ,-38.7383905,-72.5904598,VENCIDA,,
LEY 19418 TERRITORIALES,JUNTA DE VECINOS,JUNTA DE VECINOS SAN ANDRES,286,16/03/2005,117127,GABRIELA MISTRAL N°0291,Temuco,GABRIELA MISTRAL N°0291 Temuco ,-38.7272065,-72.6026292,VIGENTE,,
LEY 19418 TERRITORIALES,JUNTA DE VECINOS,JUNTA DE VECINOS LOS JARDINES DE LABRANZA,287,18/04/2005,117128,LOS TULIPANES N°760 - LABRANZA,Temuco,LOS TULIPANES N°760 - LABRANZA Temuco ,-38.7586554,-72.7429944,VIGENTE,,
LEY 19418 TERRITORIALES,JUNTA DE VECINOS,JUNTA DE VECINOS LOS PIONEROS,288,06/08/2005,0,,Temuco, Temuco ,-38.7383905,-72.5904598,VENCIDA,,
LEY 19418 TERRITORIALES,JUNTA DE VECINOS,JUNTA DE VECINOS VILLA SAN ANDRES III,289,10/05/2006,117130,GETSEMANI N°401,Temuco,GETSEMANI N°401 Temuco ,-38.7247405,-72.6053455,VIGENTE,,
LEY 19418 TERRITORIALES,JUNTA DE VECINOS,JUNTA DE VECINOS LAS VERTIENTES DEL CARMEN,290,02/11/2006,117131,LOS MUSICOS N°0890,Temuco,LOS MUSICOS N°0890 Temuco ,-38.7070993,-72.665717,VIGENTE,,
LEY 19418 TERRITORIALES,JUNTA DE VECINOS,JUNTA DE VECINOS VILLA NORAMBUENA,292,20/12/2006,117133,PUERTO EDEN N° 01885,Temuco,PUERTO EDEN N° 01885 Temuco ,-38.7590708,-72.6348587,VIGENTE,,
LEY 19418 TERRITORIALES,JUNTA DE VECINOS,JUNTA DE VECINOS RENACER DE LOS RISCOS,293,07/03/2007,0,,Temuco, Temuco ,-38.7383905,-72.5904598,VENCIDA,,
LEY 19418 TERRITORIALES,JUNTA DE VECINOS,JUNTA DE VECINOS NUEVA PADRE HURTADO,294,17/04/2007,0,LA COMPAÑIA N°02365,Temuco,LA COMPAÑIA N°02365 Temuco ,-38.7165072,-72.6294099,VIGENTE,,
LEY 19418 TERRITORIALES,JUNTA DE VECINOS,JUNTA DE VECINOS BARRIO PEHUEN,295,07/05/2007,0,,Temuco, Temuco ,-38.7383905,-72.5904598,VENCIDA,,
LEY 19418 TERRITORIALES,JUNTA DE VECINOS,JUNTA DE VECINOS ALTOS DEL CARMEN,296,07/06/2007,0,,Temuco, Temuco ,-38.7383905,-72.5904598,VENCIDA,,
LEY 19418 TERRITORIALES,JUNTA DE VECINOS,JUNTA DE VECINOS VILLA SAN MARCOS,297,12/06/2007,0,,Temuco, Temuco ,-38.7383905,-72.5904598,VENCIDA,,
LEY 19418 TERRITORIALES,JUNTA DE VECINOS,JUNTA DE VECINOS PARQUE COSTANERA,298,13/08/2007,117139,BAHÍA BLANCA N°3141,Temuco,BAHÍA BLANCA N°3141 Temuco ,-38.7096892,-72.5448992,VIGENTE,,
LEY 19418 TERRITORIALES,JUNTA DE VECINOS,JUNTA DE VECINOS PARQUE SAN SEBASTIÁN,299,13/08/2007,117140,MONTE IGELDO N° 01815,Temuco,MONTE IGELDO N° 01815 Temuco ,-38.7465649,-72.6328323,VIGENTE,,
LEY 19418 TERRITORIALES,JUNTA DE VECINOS,JUNTA DE VECINOS VILLA LOS APOSTOLES,300,16/06/2008,117141,LA ESPERANZA N°985,Temuco,LA ESPERANZA N°985 Temuco ,-38.7383905,-72.5904598,VIGENTE,,
LEY 19418 TERRITORIALES,JUNTA DE VECINOS,JUNTA DE VECINOS VILLA ILUSIÓN,301,24/06/2008,117142,LOS CONQUISTADORES N°980,Temuco,LOS CONQUISTADORES N°980 Temuco ,-38.7361181,-72.6402255,VIGENTE,,
LEY 19418 TERRITORIALES,JUNTA DE VECINOS,JUNTA DE VECINOS VILLA LOS CASTAÑOS,302,30/06/2008,117143,LOS ÑANDUES N°290 - LABRANZA,Temuco,LOS ÑANDUES N°290 - LABRANZA Temuco ,-38.7644715,-72.7646902,VIGENTE,,
LEY 19418 TERRITORIALES,JUNTA DE VECINOS,JUNTA DE VECINOS VILLA LOS SEMBRADORES,303,28/07/2008,117144,LOS FARDOS N°570,Temuco,LOS FARDOS N°570 Temuco ,-38.7164404,-72.6130219,VIGENTE,,
LEY 19418 TERRITORIALES,JUNTA DE VECINOS,JUNTA DE VECINOS VILLA NUEVO MILENIO,304,09/12/2008,117145,"SIETE VENAS N°500, VILLA NUEVA MILENIO",Temuco,"SIETE VENAS N°500, VILLA NUEVA MILENIO Temuco ",-38.7383905,-72.5904598,VIGENTE,,
LEY 19418 TERRITORIALES,JUNTA DE VECINOS,JUNTA DE VECINOS VILLA ALEN,305,02/03/2009,0,,Temuco, Temuco ,-38.7383905,-72.5904598,VENCIDA,,
LEY 19418 TERRITORIALES,JUNTA DE VECINOS,JUNTA DE VECINOS JOSÉ MUÑOZ CONCHA,306,16/03/2009,117147,NAHUEN ANTU N°0600,Temuco,NAHUEN ANTU N°0600 Temuco ,-38.7607128,-72.742354,VIGENTE,,
LEY 19418 TERRITORIALES,JUNTA DE VECINOS,JUNTA DE VECINOS VILLA GALICIA,307,27/04/2009,117148,VIGO N°02110,Temuco,VIGO N°02110 Temuco ,-38.7528187,-72.6359173,VIGENTE,,
LEY 19418 TERRITORIALES,JUNTA DE VECINOS,JUNTA DE VECINOS ALTOS DE LABRANZA,308,04/05/2009,117149,RAYENCO N° 0960 ALTOS DE LABRANZA,Temuco,RAYENCO N° 0960 ALTOS DE LABRANZA Temuco ,-38.7570384,-72.7391231,VIGENTE,,
LEY 19418 TERRITORIALES,JUNTA DE VECINOS,JUNTA DE VECINOS LOMAS DE LABRANZA,309,04/05/2009,117150,LOS PENSAMIENTOS N°1161 LABRANZA,Temuco,LOS PENSAMIENTOS N°1161 LABRANZA Temuco ,-38.7587354,-72.7399407,VIGENTE,,
LEY 19418 TERRITORIALES,JUNTA DE VECINOS,JUNTA DE VECINOS RIELES DEL SUR,310,22/06/2009,117151,LAGO HERMOSO N°0413 - LABRANZA,Temuco,LAGO HERMOSO N°0413 - LABRANZA Temuco ,-38.7603595,-72.7522234,VENCIDA,,
LEY 19418 TERRITORIALES,JUNTA DE VECINOS,JUNTA DE VECINOS LAS UNIONES,311,02/07/2009,0,,Temuco, Temuco ,-38.7383905,-72.5904598,VENCIDA,,
LEY 19418 TERRITORIALES,JUNTA DE VECINOS,JUNTA DE VECINOS VILLAS UNIDAS,312,11/08/2009,117153,LITRE N°3697,Temuco,LITRE N°3697 Temuco ,-38.7383905,-72.5904598,VIGENTE,,
LEY 19418 TERRITORIALES,JUNTA DE VECINOS,JUNTA DE VECINOS TOBALABA,313,24/08/2009,117154,ESTANISLAO ROSALES N°1420,Temuco,ESTANISLAO ROSALES N°1420 Temuco ,-38.7382319,-72.6401327,VIGENTE,,
LEY 19418 TERRITORIALES,JUNTA DE VECINOS,JUNTA DE VECINOS LOS FUNDADORES,314,27/10/2009,117155,JERUSALEN N°1130,Temuco,JERUSALEN N°1130 Temuco ,-38.7238967,-72.6261958,VIGENTE,,
LEY 19418 TERRITORIALES,JUNTA DE VECINOS,JUNTA DE VECINOS VILLA EL PRADO,315,24/06/2010,117156,JUAN HINOJOSA N°1445,Temuco,JUAN HINOJOSA N°1445 Temuco ,-38.7395877,-72.6361089,VIGENTE,,
LEY 19418 TERRITORIALES,JUNTA DE VECINOS,JUNTA DE VECINOS VILLA PARQUE ESTADIO,316,22/07/2010,117157,AV. OLIMPIA ESQ. HUERQUEHUE,Temuco,AV. OLIMPIA ESQ. HUERQUEHUE Temuco ,-38.7453627,-72.6255144,VIGENTE,,
LEY 19418 TERRITORIALES,JUNTA DE VECINOS,JUNTA DE VECINOS LAS PRADERAS DE SANTA CAROLINA,317,04/11/2010,117158,LOS HINOJOS N°3654,Temuco,LOS HINOJOS N°3654 Temuco ,-38.68964,-72.5188697,VIGENTE,,
LEY 19418 TERRITORIALES,JUNTA DE VECINOS,JUNTA DE VECINOS POBLACIÓN COIHUECO,318,26/11/2010,117159,HUENTENAO MILLANAO N°351,Temuco,HUENTENAO MILLANAO N°351 Temuco ,-38.723234,-72.620335,VIGENTE,,
LEY 19418 TERRITORIALES,JUNTA DE VECINOS,JUNTA DE VECINOS VILLA ANDALUCIA,319,28/01/2011,117160,ENREDADERAS N° 1850,Temuco,ENREDADERAS N° 1850 Temuco ,-38.7526037,-72.6255727,VIGENTE,,
LEY 19418 TERRITORIALES,JUNTA DE VECINOS,JUNTA DE VECINOS COMPARTIENDO SUEÑOS,320,24/02/2011,117161,CHAHUILCO S/N,Temuco,CHAHUILCO S/N Temuco ,-38.7188922,-72.6109164,VIGENTE,,
LEY 19418 TERRITORIALES,JUNTA DE VECINOS,JUNTA DE VECINOS VILLA JOSÉ MIGUEL GARCÍA,321,24/03/2011,117162,PASAJE 3 N°01794,Temuco,PASAJE 3 N°01794 Temuco ,-38.7137585,-72.5559449,VIGENTE,,
LEY 19418 TERRITORIALES,JUNTA DE VECINOS,JUNTA DE VECINOS SANTA MARÍA DE LABRANZA,322,12/04/2011,117163,EL PUENTE N°01367,Temuco,EL PUENTE N°01367 Temuco ,-38.7383905,-72.5904598,VIGENTE,,
LEY 19418 TERRITORIALES,JUNTA DE VECINOS,JUNTA DE VECINOS LOS DIAMANTES,323,26/04/2011,117164,AGUA MARINA N° 587 LABRANZA,Temuco,AGUA MARINA N° 587 LABRANZA Temuco ,-38.7716235,-72.7542551,VIGENTE,,
LEY 19418 TERRITORIALES,JUNTA DE VECINOS,JUNTA DE VECINOS RENACER DE EVARISTO MARÍN,324,09/05/2011,117165,NAHUELBUTA N°2735,Temuco,NAHUELBUTA N°2735 Temuco ,-38.7183762,-72.5627738,VIGENTE,,
LEY 19418 TERRITORIALES,JUNTA DE VECINOS,JUNTA DE VECINOS PARQUE COSTANERA 2,325,26/08/2011,117166,VALLE LARGO ESQUINA VALLE ALEGRE S/N,Temuco,VALLE LARGO ESQUINA VALLE ALEGRE S/N Temuco ,-38.7059704,-72.5405521,VIGENTE,,
LEY 19418 TERRITORIALES,JUNTA DE VECINOS,JUNTA DE VECINOS LOS CONQUISTADORES,326,30/08/2011,117167,RIO AMAZONAS N°731,Temuco,RIO AMAZONAS N°731 Temuco ,-38.7274967,-72.5554852,VIGENTE,,
LEY 19418 TERRITORIALES,JUNTA DE VECINOS,JUNTA DE VECINOS BICENTENARIO,327,30/08/2011,117168,"KM. 15,5 AL 17,5 CAMINO LABRANZA",Temuco,"KM. 15,5 AL 17,5 CAMINO LABRANZA Temuco ",-38.7631603,-72.725001,VIGENTE,,
LEY 19418 TERRITORIALES,JUNTA DE VECINOS,JUNTA DE VECINOS LOS AROMOS DEL CARMEN,328,09/09/2011,117169,LOS MUSICOS N°330,Temuco,LOS MUSICOS N°330 Temuco ,-38.7131741,-72.6464845,VENCIDA,,
LEY 19418 TERRITORIALES,JUNTA DE VECINOS,JUNTA DE VECINOS NUEVA GENERACIÓN LANIN,329,18/10/2011,117170,RECREO ESQUINA FRANCISCO POBLETE S/N,Temuco,RECREO ESQUINA FRANCISCO POBLETE S/N Temuco ,-38.7258181,-72.6058193,VIGENTE,,
LEY 19418 TERRITORIALES,JUNTA DE VECINOS,JUNTA DE VECINOS VILLA GANADEROS,330,26/12/2011,117171,MANTUA ESQUINA VAQUERIA S/N,Temuco,MANTUA ESQUINA VAQUERIA S/N Temuco ,-38.7383905,-72.5904598,VIGENTE,,
LEY 19418 TERRITORIALES,JUNTA DE VECINOS,JUNTA DE VECINOS NEHUEN PORTAL DE SAN FRANCISCO,331,11/01/2012,117172,CIRCUNVALACIÓN FRANCISCO HUENCHUMILLA N°01127,Temuco,CIRCUNVALACIÓN FRANCISCO HUENCHUMILLA N°01127 Temuco ,-38.68739,-72.65546,VENCIDA,,
LEY 19418 TERRITORIALES,JUNTA DE VECINOS,JUNTA DE VECINOS VILLA RIVERA,332,19/01/2012,117173,AV. MANZANARES N°253 VILLA RIVERA,Temuco,AV. MANZANARES N°253 VILLA RIVERA Temuco ,-38.7383905,-72.5904598,VIGENTE,,
LEY 19418 TERRITORIALES,JUNTA DE VECINOS,JUNTA DE VECINOS PEU MAYEN DEL PORTAL SAN FRANCISCO,333,06/02/2012,117174,CIRCUNVALACIÓN FRANCISCO HUENCHUMILLA N°0448,Temuco,CIRCUNVALACIÓN FRANCISCO HUENCHUMILLA N°0448 Temuco ,-38.69075,-72.65309,VIGENTE,,
LEY 19418 TERRITORIALES,JUNTA DE VECINOS,JUNTA DE VECINOS AYELEN,334,27/02/2012,117175,AYELEN N°04274,Temuco,AYELEN N°04274 Temuco ,-38.6897554,-72.654975,VIGENTE,,
LEY 19418 TERRITORIALES,JUNTA DE VECINOS,JUNTA DE VECINOS LEONARDO DA VINCI,335,17/04/2012,117176,LOS PIONEROS N°010,Temuco,LOS PIONEROS N°010 Temuco ,-38.7525041,-72.6326798,VIGENTE,,
LEY 19418 TERRITORIALES,JUNTA DE VECINOS,JUNTA DE VECINOS TORRES DEL ÑIELOL,336,21/08/2012,117177,PRIETO NORTE N°0351,Temuco,PRIETO NORTE N°0351 Temuco ,-38.727737,-72.59871,VENCIDA,,
LEY 19418 TERRITORIALES,JUNTA DE VECINOS,JUNTA DE VECINOS VALLE DE ASTURIAS,337,24/09/2012,117178,PASAJE EL MOLINO N°3520 VALLE DE ASTURIAS,Temuco,PASAJE EL MOLINO N°3520 VALLE DE ASTURIAS Temuco ,-38.7001353,-72.5384888,VIGENTE,,
LEY 19418 TERRITORIALES,JUNTA DE VECINOS,JUNTA DE VECINOS VILLA RENACER,338,21/11/2012,0,,Temuco, Temuco ,-38.7383905,-72.5904598,VENCIDA,,
LEY 19418 TERRITORIALES,JUNTA DE VECINOS,JUNTA DE VECINOS MANANTIAL,339,02/05/2013,117180,PRIETO NORTE N°280,Temuco,PRIETO NORTE N°280 Temuco ,-38.7342425,-72.6009505,VIGENTE,,
LEY 19418 TERRITORIALES,JUNTA DE VECINOS,JUNTA DE VECINOS VALLE DEL MAIPO,340,08/05/2013,110884,MARCONI N°02520,Temuco,MARCONI N°02520 Temuco ,-38.7383905,-72.5904598,VIGENTE,,
LEY 19418 TERRITORIALES,JUNTA DE VECINOS,JUNTA DE VECINOS PARQUE RESIDENCIAL MARTÍN HIRIART,341,29/05/2013,117182,MADRE SELVA N°2760,Temuco,MADRE SELVA N°2760 Temuco ,-38.7513922,-72.642589,VIGENTE,,
LEY 19418 TERRITORIALES,JUNTA DE VECINOS,JUNTA DE VECINOS VILLA DON JOAQUÍN,342,03/06/2013,117183,"PASAJE DON FELIPE N°03080, VILLA DON JOAQUÍN",Temuco,"PASAJE DON FELIPE N°03080, VILLA DON JOAQUÍN Temuco ",-38.7169689,-72.5503417,VIGENTE,,
LEY 19418 TERRITORIALES,JUNTA DE VECINOS,JUNTA DE VECINOS ALTOS DEL MAIPO I,343,13/06/2013,117184,AV. PORTAL DEL MAIPO N°03780,Temuco,AV. PORTAL DEL MAIPO N°03780 Temuco ,-38.7564847,-72.6552018,VENCIDA,,
LEY 19418 TERRITORIALES,JUNTA DE VECINOS,JUNTA DE VECINOS LOS BOLDOS,344,24/07/2013,145085,RÍO BLANCO N°791 - VILLA LA FRONTERA,Temuco,RÍO BLANCO N°791 - VILLA LA FRONTERA Temuco ,-38.7383905,-72.5904598,VIGENTE,,
LEY 19418 TERRITORIALES,JUNTA DE VECINOS,JUNTA DE VECINOS RENACER DE SAN MARCO,345,30/08/2013,157177,ANUNCIACIÓN N° 0581 - VILLA SAN MARCO,Temuco,ANUNCIACIÓN N° 0581 - VILLA SAN MARCO Temuco ,-38.7383905,-72.5904598,VIGENTE,,
LEY 19418 TERRITORIALES,JUNTA DE VECINOS,JUNTA DE VECINOS N° 28 YUNGAY,346,22/11/2013,159379,YUNGAY N°780,Temuco,YUNGAY N°780 Temuco ,-38.73662,-72.57261,VENCIDA,,
LEY 19418 TERRITORIALES,JUNTA DE VECINOS,JUNTA DE VECINOS VILLA RUCALHUE,347,26/11/2013,159371,MILANO N° 03262 - VILLA RUCALHUE,Temuco,MILANO N° 03262 - VILLA RUCALHUE Temuco ,-38.7383905,-72.5904598,VIGENTE,,
LEY 19418 TERRITORIALES,JUNTA DE VECINOS,JUNTA DE VECINOS LOS POETAS DEL PROGRESO,348,22/01/2014,163349,MALVOA ESQ. RÍO VERDE,Temuco,MALVOA ESQ. RÍO VERDE Temuco ,-38.7457277,-72.581811,VIGENTE,,
LEY 19418 TERRITORIALES,JUNTA DE VECINOS,JUNTA DE VECINOS BARRIO LAS TRANQUERAS,349,20/03/2014,169393,ISLA CHILOÉ N°03111 BARRIO LAS TRANQUERAS,Temuco,ISLA CHILOÉ N°03111 BARRIO LAS TRANQUERAS Temuco ,-38.7135573,-72.5490978,VIGENTE,,
LEY 19418 TERRITORIALES,JUNTA DE VECINOS,JUNTA DE VECINOS BARRIO VISTA VOLCÁN,350,05/05/2014,171967,NEVADO LLAIMA N°3541 BARRIO VISTA VOLCAN,Temuco,NEVADO LLAIMA N°3541 BARRIO VISTA VOLCAN Temuco ,-38.6948115,-72.5282048,VIGENTE,,
LEY 19418 TERRITORIALES,JUNTA DE VECINOS,JUNTA DE VECINOS ALTAMIRA,351,13/05/2014,171968,ALTAMIRA N°01662,Temuco,ALTAMIRA N°01662 Temuco ,-38.7499877,-72.6306857,VIGENTE,,
LEY 19418 TERRITORIALES,JUNTA DE VECINOS,JUNTA DE VECINOS NUEVA COMUNIDAD GALICIA II,352,13/05/2014,171969,AV. JAVIERA CARRERA N°1715 VILLA GALICIA II,Temuco,AV. JAVIERA CARRERA N°1715 VILLA GALICIA II Temuco ,-38.7434271,-72.6316573,VIGENTE,,
LEY 19418 TERRITORIALES,JUNTA DE VECINOS,JUNTA DE VECINOS PARQUE DON ROSAURO,353,12/06/2014,173416,VALERIANA N°02230 PARQUE DON ROSAURO,Temuco,VALERIANA N°02230 PARQUE DON ROSAURO Temuco ,-38.7113477,-72.554311,VIGENTE,,
LEY 19418 TERRITORIALES,JUNTA DE VECINOS,JUNTA DE VECINOS JARDÍN DE LAS ROSAS,354,17/06/2014,173428,LAS PRIMULAS N° 1620 VILLA JARDÍN DE LAS ROSAS,Temuco,LAS PRIMULAS N° 1620 VILLA JARDÍN DE LAS ROSAS Temuco ,-38.7446539,-72.6210996,VIGENTE,07/08/2017,
LEY 19418 TERRITORIALES,JUNTA DE VECINOS,JUNTA DE VECINOS LOS POETAS DE LABRANZA,355,03/09/2014,180887,GONZALO ROJAS PIZARRO N°742 VILLA LOS POETAS-LABRANZA,Temuco,GONZALO ROJAS PIZARRO N°742 VILLA LOS POETAS-LABRANZA Temuco ,-38.7728508,-72.7516808,VIGENTE,,
LEY 19418 TERRITORIALES,JUNTA DE VECINOS,JUNTA DE VECINOS EL TREBOL DE LABRANZA,356,14/10/2014,187907,ÁMBAR N° 339 VILLA EL TRÉBOL - LABRANZA,Temuco,ÁMBAR N° 339 VILLA EL TRÉBOL - LABRANZA Temuco ,-38.767109,-72.7570917,VIGENTE,,
LEY 19418 TERRITORIALES,JUNTA DE VECINOS,JUNTA DE VECINOS VILLA AYELEN DE LABRANZA,357,24/10/2014,189052,ABRAHAM N° 321 VILLA AYELEN - LABRANZA,Temuco,ABRAHAM N° 321 VILLA AYELEN - LABRANZA Temuco ,-38.6950386,-72.6493508,VIGENTE,,
LEY 19418 TERRITORIALES,JUNTA DE VECINOS,JUNTA DE VECINOS NUEVA LANIN,358,06/11/2014,189053,FRANCISCO POBLETE N° 0745 POBLACIÓN LANIN,Temuco,FRANCISCO POBLETE N° 0745 POBLACIÓN LANIN Temuco ,-38.7245333,-72.6074957,VENCIDA,,
LEY 19418 TERRITORIALES,JUNTA DE VECINOS,JUNTA DE VECINOS COPIHUES DE COILACO,359,19/11/2014,190419,AV. PEDRO DE VALDIVIA N°0930,Temuco,AV. PEDRO DE VALDIVIA N°0930 Temuco ,-38.727474,-72.612227,VENCIDA,,
LEY 19418 TERRITORIALES,JUNTA DE VECINOS,JUNTA DE VECINOS EL AROMO DE LA NUEVA GENERACIÓN,360,20/01/2015,194858,JERUSALEN N°570 VILLA NUEVA GENERACIÓN,Temuco,JERUSALEN N°570 VILLA NUEVA GENERACIÓN Temuco ,-38.7383905,-72.5904598,VIGENTE,,
LEY 19418 TERRITORIALES,JUNTA DE VECINOS,JUNTA DE VECINOS LOMAS DE RECABARREN,361,08/06/2015,207457,CERRO COLORADO N° 01994 VILLA LOMAS DE RECABARREN,Temuco,CERRO COLORADO N° 01994 VILLA LOMAS DE RECABARREN Temuco ,-38.755004,-72.6344069,VIGENTE,,
LEY 19418 TERRITORIALES,JUNTA DE VECINOS,JUNTA DE VECINOS JARDIN DE LOS NARANJOS,362,22/07/2015,209049,ÑUÑOA N°02047 - VILLA JARDÍN DE LOS NARANJOS,Temuco,ÑUÑOA N°02047 - VILLA JARDÍN DE LOS NARANJOS Temuco ,-38.7383905,-72.5904598,VIGENTE,,
LEY 19418 TERRITORIALES,JUNTA DE VECINOS,JUNTA DE VECINOS VILLA LOS REYES,363,30/11/2015,215832,REY LUIS I N°879 VILLA LOS REYES - LABRANZA,Temuco,REY LUIS I N°879 VILLA LOS REYES - LABRANZA Temuco ,-38.7662225,-72.7503687,VIGENTE,,
LEY 19418 TERRITORIALES,JUNTA DE VECINOS,JUNTA DE VECINOS HACIENDA LAS MARIPOSAS,364,14/12/2015,216302,CERRO ÑIELOL PONIENTE N°03150 - HACIENDA LAS MARIPOSAS,Temuco,CERRO ÑIELOL PONIENTE N°03150 - HACIENDA LAS MARIPOSAS Temuco ,-38.6995113,-72.5517579,VIGENTE,,
LEY 19418 TERRITORIALES,JUNTA DE VECINOS,JUNTA DE VECINOS CASA MAQUINAS,365,21/12/2015,216303,ROSA BASOALTO OPAZO N°2078 VILLA CASA MAQUINAS,Temuco,ROSA BASOALTO OPAZO N°2078 VILLA CASA MAQUINAS Temuco ,-38.7273492,-72.5687052,VIGENTE,,
LEY 19418 TERRITORIALES,JUNTA DE VECINOS,JUNTA DE VECINOS VILLA EL RODEO,366,18/03/2016,219432,EL PLACER N°0674 VILLA EL RODEO,Temuco,EL PLACER N°0674 VILLA EL RODEO Temuco ,-38.7383905,-72.5904598,VIGENTE,,
LEY 19418 TERRITORIALES,JUNTA DE VECINOS,JUNTA DE VECINOS VILLA LOS AROMOS,367,30/03/2016,229854,LOS LIRIOS N° 90 VILLA LOS AROMOS,Temuco,LOS LIRIOS N° 90 VILLA LOS AROMOS Temuco ,-38.7495227,-72.6066211,VIGENTE,,
LEY 19418 TERRITORIALES,JUNTA DE VECINOS,JUNTA DE VECINOS DIPUTADO BECKER 1,368,26/09/2016,242636,DIRIGENTES VECINALES N°0570 - VILLA DIPUTADO BECKER 1,Temuco,DIRIGENTES VECINALES N°0570 - VILLA DIPUTADO BECKER 1 Temuco ,-38.7611925,-72.6530329,VIGENTE,,
LEY 19418 TERRITORIALES,JUNTA DE VECINOS,JUNTA DE VECINOS PORTAL NUEVO HORIZONTE,369,27/09/2016,242639,CAMARONES N°01143 - VILLA PORTAL NUEVO HORIZONTE,Temuco,CAMARONES N°01143 - VILLA PORTAL NUEVO HORIZONTE Temuco ,-38.7388529,-72.5972719,VIGENTE,,
LEY 19418 TERRITORIALES,JUNTA DE VECINOS,JUNTA DE VECINOS PABLO NERUDA,370,11/10/2016,243519,JANEQUEO N° 1630,Temuco,JANEQUEO N° 1630 Temuco ,-38.7317522,-72.5769763,VIGENTE,,
LEY 19418 TERRITORIALES,JUNTA DE VECINOS,JUNTA DE VECINOS VILLA LOS TROVADORES,371,17/10/2016,243521,RÍO AMAZONAS N°01595 - VILLA LOS TROVADORES,Temuco,RÍO AMAZONAS N°01595 - VILLA LOS TROVADORES Temuco ,-38.7383905,-72.5904598,VIGENTE,,
LEY 19418 TERRITORIALES,JUNTA DE VECINOS,JUNTA DE VECINOS LOS PABLOS,372,06/12/2016,244739,JUSTO DONOSO N°02116 - VILLA SANTA CECILIA,Temuco,JUSTO DONOSO N°02116 - VILLA SANTA CECILIA Temuco ,-38.7383905,-72.5904598,VIGENTE,,
LEY 19418 TERRITORIALES,JUNTA DE VECINOS,JUNTA DE VECINOS AITUE,373,23/01/2017,247074,HUASCARÁN N°0921 - PLAZAS DE CHIVILCAN,Temuco,HUASCARÁN N°0921 - PLAZAS DE CHIVILCAN Temuco ,-38.7383905,-72.5904598,VIGENTE,,
LEY 19418 TERRITORIALES,JUNTA DE VECINOS,JUNTA DE VECINOS ALTOS DE SAN ISIDRO 1,374,20/03/2017,252601,1 ORIENTE N° 538 - VILLA ALTOS DE SAN ISIDRO - LABRANZA,Temuco,1 ORIENTE N° 538 - VILLA ALTOS DE SAN ISIDRO - LABRANZA Temuco ,-38.7705108,-72.7519687,VIGENTE,,
LEY 19418 TERRITORIALES,JUNTA DE VECINOS,JUNTA DE VECINOS DIPUTADO BECKER II,375,31/05/2017,257900,ROTONDA DIRIGENTES VECINALES N° 0570 VILLA DIPUTADO BECKER II,Temuco,ROTONDA DIRIGENTES VECINALES N° 0570 VILLA DIPUTADO BECKER II Temuco ,-38.7611925,-72.6530329,VIGENTE,,
LEY 19418 TERRITORIALES,JUNTA DE VECINOS,JUNTA DE VECINOS LOS JARDINES DE AVENIDA ALEMANIA,376,24/08/2017,261994,PRIETO NORTE N°450,Temuco,PRIETO NORTE N°450 Temuco ,-38.7362595,-72.6015186,VIGENTE,,
LEY 19418 TERRITORIALES,JUNTA DE VECINOS,JUNTA DE VECINOS VILLA PORTAL DEL SOL,377,06/10/2017,266788,CHACAO N°771 VILLA PORTAL DEL SOL,Temuco,CHACAO N°771 VILLA PORTAL DEL SOL Temuco ,-38.7300993,-72.5562865,VIGENTE,,
LEY 19418 TERRITORIALES,JUNTA DE VECINOS,JUNTA DE VECINOS AYLLAN MARILLAN,378,20/10/2017,267802,AYLLAN MARILLAN N° 590 CONDOMINIO DANIEL SCHMIDT,Temuco,AYLLAN MARILLAN N° 590 CONDOMINIO DANIEL SCHMIDT Temuco ,-38.724564,-72.6237828,VIGENTE,,
LEY 19418 TERRITORIALES,JUNTA DE VECINOS,JUNTA DE VECINOS VILLA JORGE TEILLIER,379,23/10/2017,267799,2 NORTE N° 870 VILLA JORGE TEILLIER,Temuco,2 NORTE N° 870 VILLA JORGE TEILLIER Temuco ,-38.7634833,-72.7462862,VIGENTE,,
LEY 19418 TERRITORIALES,JUNTA DE VECINOS,JUNTA DE VECINOS LA FRONTERA,380,04/12/2017,269003,Esperanza Norte N° 0620,Temuco,Esperanza Norte N° 0620 Temuco ,-38.7383905,-72.5904598,VENCIDA,,
LEY 19418 TERRITORIALES,JUNTA DE VECINOS,JUNTA DE VECINOS VILLA JARDINES DEL FUNDO,381,05/12/2017,269005,Los Mentores N°0371 Villa Jardines del Fundo,Temuco,Los Mentores N°0371 Villa Jardines del Fundo Temuco ,-38.7138711,-72.661736,VIGENTE,,
LEY 19418 TERRITORIALES,JUNTA DE VECINOS,JUNTA DE VECINOS VILLA LAS ENCINAS,382,06/12/2017,269518,Las Enredaderas N° 01698 Villas Las Encinas,Temuco,Las Enredaderas N° 01698 Villas Las Encinas Temuco ,-38.7497669,-72.6239405,VIGENTE,,
LEY 19418 TERRITORIALES,JUNTA DE VECINOS,JUNTA DE VECINOS LAS COPAS DE AGUA,383,21/12/2017,269482,Las Cascada N°01790 Villa Camino del Alba,Temuco,Las Cascada N°01790 Villa Camino del Alba Temuco ,-38.7383905,-72.5904598,VIGENTE,,
LEY 19418 TERRITORIALES,JUNTA DE VECINOS,JUNTA DE VECINOS LOS ESTUDIANTES,384,04/01/2018,270588,Avda. Gabriela Mistral N° 1609 Barrio Las Encinas,Temuco,Avda. Gabriela Mistral N° 1609 Barrio Las Encinas Temuco ,-38.7288869,-72.622347,VIGENTE,,
LEY 19418 TERRITORIALES,JUNTA DE VECINOS,JUNTA DE VECINOS PRADERAS DEL PORTAL,385,02/04/2018,275241,Calle Las Aralias N° 04083,Temuco,Calle Las Aralias N° 04083 Temuco ,-38.6865899,-72.6531248,VIGENTE,,
LEY 19418 TERRITORIALES,JUNTA DE VECINOS,JUNTA DE VECINOS VILLA LA UNIÓN,386,17/04/2018,275240,"Calle Farellones N°02714, Villa Portal San Francisco",Temuco,"Calle Farellones N°02714, Villa Portal San Francisco Temuco ",-38.7383905,-72.5904598,VIGENTE,,
LEY 19418 TERRITORIALES,JUNTA DE VECINOS,JUNTA DE VECINOS PLAZAS DE CHIVILCAN,387,17/04/2018,275252,"Pasaje El Alero N°01671, Villa Plazas de Chivilcan",Temuco,"Pasaje El Alero N°01671, Villa Plazas de Chivilcan Temuco ",-38.715753,-72.6176663,VENCIDA,,
LEY 19418 TERRITORIALES,JUNTA DE VECINOS,JUNTA DE VECINOS LAS PRADERAS DEL FUNDO,388,12/05/2018,279131,"Calle Los Fundadores N° 0105, Fundo El Carmen",Temuco,"Calle Los Fundadores N° 0105, Fundo El Carmen Temuco ",-38.7146846,-72.6545683,VENCIDA,,
LEY 19418 TERRITORIALES,JUNTA DE VECINOS,JUNTA DE VECINOS LAS APACHETAS,389,06/08/2018,280616,"Calle Los Apachetas N° 0915 Block 10, Villa Andina",Temuco,"Calle Los Apachetas N° 0915 Block 10, Villa Andina Temuco ",-38.7132913,-72.6241748,VIGENTE,,
LEY 19418 TERRITORIALES,JUNTA DE VECINOS,JUNTA DE VECINOS MILLAHUE,390,10/08/2018,282549,calle Millahue N°0600,Temuco,calle Millahue N°0600 Temuco ,-38.7459669,-72.6104855,VIGENTE,,
LEY 19418 TERRITORIALES,JUNTA DE VECINOS,JUNTA DE VECINOS LOS PRESIDENTES DE LABRANZA,391,25/09/2018,283019,Pasaje Presidente Patricio Aylwin Azocar N° 0410 - Labranza,Temuco,Pasaje Presidente Patricio Aylwin Azocar N° 0410 - Labranza Temuco ,-38.7662225,-72.7503687,VIGENTE,,
LEY 19418 TERRITORIALES,JUNTA DE VECINOS,JUNTA DE VECINOS CORDILLERA DE SANTA MARÍA,392,23/10/2018,283636,"Calle Volcán Villarrica N°01319, Hacienda Santa María de Labranza",Temuco,"Calle Volcán Villarrica N°01319, Hacienda Santa María de Labranza Temuco ",-38.7623035,-72.7734532,VIGENTE,,
LEY 19418 TERRITORIALES,JUNTA DE VECINOS,JUNTA DE VECINOS POBLACIÓN DE CARABINEROS,393,12/11/2018,284110,Avda. Prieto Norte N°230,Temuco,Avda. Prieto Norte N°230 Temuco ,-38.7339319,-72.6007573,VENCIDA,,
LEY 19418 TERRITORIALES,JUNTA DE VECINOS,JUNTA DE VECINOS VILLA LOS ARQUITECTOS,394,11/04/2019,290554,calle Enrique Estevez N°4201,Temuco,calle Enrique Estevez N°4201 Temuco ,-38.7529387,-72.6622775,VIGENTE,,
LEY 19418 TERRITORIALES,JUNTA DE VECINOS,JUNTA DE VECINOS PORTAL ALEGRIA DE LABRANZA,395,09/05/2019,291807,"Avenida Impetú N°550, Villa Portal de la Alegría, Labranza",Temuco,"Avenida Impetú N°550, Villa Portal de la Alegría, Labranza Temuco ",-38.771868,-72.7691811,VIGENTE,,
LEY 19418 TERRITORIALES,JUNTA DE VECINOS,JUNTA DE VECINOS UNIÓN SARITA GAJARDO,396,09/05/2019,291805,"calle Andrés Bello N°1625, Población Sarita Gajardo",Temuco,"calle Andrés Bello N°1625, Población Sarita Gajardo Temuco ",-38.7383905,-72.5904598,VIGENTE,,
LEY 19418 TERRITORIALES,JUNTA DE VECINOS,JUNTA DE VECINOS LOS OBISPOS DE JUAN PABLO,397,05/06/2019,292613,"calle Obispo Alejandro Menchaca Lira N°01274, Villa Juan Pablo II",Temuco,"calle Obispo Alejandro Menchaca Lira N°01274, Villa Juan Pablo II Temuco ",-38.7383905,-72.5904598,VENCIDA,,
LEY 19418 TERRITORIALES,JUNTA DE VECINOS,JUNTA DE VECINOS BARRIO HOLANDESA,398,08/07/2019,298727,Avda. Holandesa N°0830,Temuco,Avda. Holandesa N°0830 Temuco ,-38.7376,-72.6145,VIGENTE,,
LEY 19418 TERRITORIALES,JUNTA DE VECINOS,JUNTA DE VECINOS PARQUE RESIDENCIAL LAS GARZAS,399,16/08/2019,298726,"pasaje El Chañar N°3030, Villa Parque Residencial Las Garzas",Temuco,"pasaje El Chañar N°3030, Villa Parque Residencial Las Garzas Temuco ",-38.7658175,-72.6778131,VIGENTE,,
LEY 19418 TERRITORIALES,JUNTA DE VECINOS,JUNTA DE VECINOS VILLA LOS NOGALES,400,10/10/2019,304447,"calle Tirso de Molina N°3820, Villa Los Nogales",Temuco,"calle Tirso de Molina N°3820, Villa Los Nogales Temuco ",-38.6993886,-72.5385018,VIGENTE,,
LEY 19418 TERRITORIALES,JUNTA DE VECINOS,JUNTA DE VECINOS BRISAS DE LABRANZA,401,09/12/2019,306818,"Calle Rio Achibueno N° 772, Villa Brisas De Labranza",Temuco,"Calle Rio Achibueno N° 772, Villa Brisas De Labranza Temuco ",-38.7658955,-72.7452182,VIGENTE,,
LEY 19418 TERRITORIALES,JUNTA DE VECINOS,JUNTA DE VECINOS VILLA LAS PRADERAS DE LABRANZA,402,16/12/2019,307088,"calle Estero Tricao N° 9, Villa Las Praderas de Labranza",Temuco,"calle Estero Tricao N° 9, Villa Las Praderas de Labranza Temuco ",-38.7607029,-72.7579605,VIGENTE,,
LEY 19418 TERRITORIALES,JUNTA DE VECINOS,JUNTA DE VECINOS MARTIN LUTERO,403,12/05/2020,312758,"Av. Martin Lutero N° 02571, Portal de la Frontera",Temuco,"Av. Martin Lutero N° 02571, Portal de la Frontera Temuco ",-38.750422,-72.6459328,VIGENTE,,
LEY 19418 TERRITORIALES,JUNTA DE VECINOS,JUNTA DE VECINOS POBLACIÓN LAVANDEROS,404,19/08/2021,321361,"calle Millahue N°0644, Población Lavanderos",Temuco,"calle Millahue N°0644, Población Lavanderos Temuco ",-38.7465001,-72.6111025,VIGENTE,,
LEY 19418 TERRITORIALES,JUNTA DE VECINOS,JUNTA DE VECINOS VILLA ALTOS DE AGUIRRE,405,25/08/2021,321332,"calle Rodrigo Martínez N°1353, Villa Altos de Aguirre, Labranza",Temuco,"calle Rodrigo Martínez N°1353, Villa Altos de Aguirre, Labranza Temuco ",-38.7662225,-72.7503687,VIGENTE,,
LEY 19418 TERRITORIALES,JUNTA DE VECINOS,JUNTA DE VECINOS LOMAS DE MIRASUR,406,01/10/2021,323111,Av. San Martín N°02390,Temuco,Av. San Martín N°02390 Temuco ,-38.7335327,-72.6357126,VIGENTE,,
LEY 19418 TERRITORIALES,JUNTA DE VECINOS,JUNTA DE VECINOS ALTO LOMAS DE LABRANZA,407,19/10/2021,323732,"pasaje Cala N°1025, Labranza",Temuco,"pasaje Cala N°1025, Labranza Temuco ",-38.7599928,-72.7427976,VIGENTE,,
LEY 19418 TERRITORIALES,JUNTA DE VECINOS,JUNTA DE VECINOS VILLA LA HACIENDA SANTA MARÍA,408,25/10/2021,324708,Emiliano Figueroa Larraín N°0835,Temuco,Emiliano Figueroa Larraín N°0835 Temuco ,-38.7383905,-72.5904598,VIGENTE,,
LEY 19418 TERRITORIALES,JUNTA DE VECINOS,JUNTA DE VECINOS VILLA NUESTRA SEÑORA DEL CARMEN,409,10/11/2021,325528,calle Jaime Castillo Velasco N°433,Temuco,calle Jaime Castillo Velasco N°433 Temuco ,-38.7121176,-72.6631249,VIGENTE,,
LEY 19418 TERRITORIALES,JUNTA DE VECINOS,JUNTA DE VECINOS CONDOMINIO DOÑA JAVIERA,410,07/12/2021,326086,"Javiera Carrera N°0760, Torre I, Dpto. N°503",Temuco,"Javiera Carrera N°0760, Torre I, Dpto. N°503 Temuco ",-38.716475,-72.6232066,VIGENTE,,
LEY 19418 TERRITORIALES,JUNTA DE VECINOS,JUNTA DE VECINOS VILLA VALPARAISO,411,13/12/2021,0,José Benavente N°01025,Temuco,José Benavente N°01025 Temuco ,-38.7312159,-72.5650551,VIGENTE,,
LEY 19418 TERRITORIALES,JUNTA DE VECINOS,JUNTA DE VECINOS VILLA ANTUKUYEN,412,11/01/2022,327533,"calle Wenchuman N°1821, Villa Antukeyen",Temuco,"calle Wenchuman N°1821, Villa Antukeyen Temuco ",-38.7383905,-72.5904598,VIGENTE,,
LEY 19418 TERRITORIALES,JUNTA DE VECINOS,JUNTA DE VECINOS LOS FUNDADORES ARAUCANÍA,413,01/02/2022,331576,pasaje Rosa Rodríguez Riquelme N°04325,Temuco,pasaje Rosa Rodríguez Riquelme N°04325 Temuco ,-38.76626,-72.6753454,VIGENTE,,
LEY 19418 TERRITORIALES,JUNTA DE VECINOS,JUNTA DE VECINOS VILLA LAS CUMBRES,414,03/05/2022,331376,"pasaje Tres Cruces N°805, Villa Las Cumbres",Temuco,"pasaje Tres Cruces N°805, Villa Las Cumbres Temuco ",-38.7383905,-72.5904598,VIGENTE,,
LEY 19418 TERRITORIALES,JUNTA DE VECINOS,JUNTA DE VECINOS VILLA ALTOS DE SAN LUIS,415,19/07/2022,331693,Paseo del Sol esquina Lago Gris,Temuco,Paseo del Sol esquina Lago Gris Temuco ,-38.7591186,-72.7519188,VIGENTE,,
LEY 19418 TERRITORIALES,JUNTA DE VECINOS,JUNTA DE VECINOS VILLA LOS PINOS,416,20/10/2022,338907,Los Pinos N°75,Temuco,Los Pinos N°75 Temuco ,-38.7526629,-72.6153732,VIGENTE,,
LEY 19418 TERRITORIALES,JUNTA DE VECINOS,JUNTA DE VECINOS CONDOMINIO SOL NACIENTE,417,10/11/2022,340815,"calle El Bosque N°0641, Torre E, Dpto. N°302",Temuco,"calle El Bosque N°0641, Torre E, Dpto. N°302 Temuco ",-38.7383905,-72.5904598,VIGENTE,,
LEY 19418 TERRITORIALES,JUNTA DE VECINOS,JUNTA DE VECINOS COLÓN,418,19/12/2022,340918,Av. Cristóbal Colón N°0895,Temuco,Av. Cristóbal Colón N°0895 Temuco ,-38.7233411,-72.6114219,VIGENTE,,
LEY 19418 TERRITORIALES,JUNTA DE VECINOS,JUNTA DE VECINOS SANTA MARÍA DE LABRANZA VII,419,27/02/2023,344474,La Chacra N°01405,Temuco,La Chacra N°01405 Temuco ,-38.7383905,-72.5904598,VIGENTE,,
LEY 19418 TERRITORIALES,JUNTA DE VECINOS,JUNTA VECINOS NUEVOS TIEMPOS SAN ANTONIO,420,19/05/2023,347533,Claro Solar N°1499,Temuco,Claro Solar N°1499 Temuco ,-38.7405409,-72.5820127,VIGENTE,,
LEY 19418 TERRITORIALES,JUNTA DE VECINOS,JUNTA DE VECINOS NEWEN RUKA,421,09/06/2023,348626,Lagos Gris N°531,Temuco,Lagos Gris N°531 Temuco ,-38.7590293,-72.7506531,VIGENTE,,
LEY 19418 TERRITORIALES,JUNTA DE VECINOS,JUNTA DE VECINOS EL MOLINO,422,19/06/2023,349577,Calle Misioneros N°4017,Temuco,Calle Misioneros N°4017 Temuco ,-38.7383905,-72.5904598,VIGENTE,,
LEY 19418 TERRITORIALES,JUNTA DE VECINOS,JUNTA DE VECINOS NUEVA VISTA HERMOSA,423,07/09/2023,353481,QUILACOYA N°0709,Temuco,QUILACOYA N°0709 Temuco ,-38.7271185,-72.6066289,VIGENTE,,
LEY 19418 TERRITORIALES,JUNTA DE VECINOS,JUNTA DE VECINOS NUEVA PADRE LUIS DE VALDIVIA,424,24/10/2023,355544,"Calle Volcán Nevados de Chillán N°0431, Padre Luis de Valdivia",Temuco,"Calle Volcán Nevados de Chillán N°0431, Padre Luis de Valdivia Temuco ",-38.7631817,-72.7704456,VIGENTE,,
LEY 19418 TERRITORIALES,JUNTA DE VECINOS,JUNTA DE VECINOS LOS FILOSOFOS,425,27/11/2023,357034,Los Filósofos N°0647,Temuco,Los Filósofos N°0647 Temuco ,-38.7383905,-72.5904598,VIGENTE,,
LEY 19418 TERRITORIALES,JUNTA DE VECINOS,JUNTA DE VECINOS ALONSO DE ERCILLA,426,20/12/2023,358024,Calle Ziem N°2303,Temuco,Calle Ziem N°2303 Temuco ,-38.7238282,-72.5659327,VIGENTE,,
LEY 19418 TERRITORIALES,JUNTA DE VECINOS,JUNTA DE VECINOS CONDOMINIO HACIENDA SAN SEBASTIAN,427,27/12/2023,358347,MISIONEROS N°4017,Temuco,MISIONEROS N°4017 Temuco ,-38.7383905,-72.5904598,VENCIDA,,
LEY 19418 TERRITORIALES,JUNTA DE VECINOS,JUNTA DE VECINOS BRISAS DE LABRANZA 3,428,19/03/2024,361372,Río Truful Truful N°1061,Temuco,Río Truful Truful N°1061 Temuco ,-38.7668555,-72.742736,VIGENTE,,
LEY 19418 TERRITORIALES,JUNTA DE VECINOS,JUNTA DE VECINOS CALLE A - AMANECER,429,27/03/2024,361700,Venecia N°01185,Temuco,Venecia N°01185 Temuco ,-38.7548104,-72.6219919,VIGENTE,,
LEY 19418 TERRITORIALES,JUNTA DE VECINOS,JUNTA DE VECINOS VILLA MARTÍN HIRIART,430,17/05/2024,0,Calle Misioneros N°4017,Temuco,Calle Misioneros N°4017 Temuco ,-38.7383905,-72.5904598,VIGENTE,,